[{"addr:housenumber":7733,"addr:street":"Boulevard Taschereau","wheelchair":"yes","place_id":"ChIJJ9FRSXoPyUwRaJxKHz_K-qo"},{"addr:housenumber":1011,"addr:street":"Rue Sainte-Catherine Ouest","wheelchair":"yes","place_id":"ChIJxQR86EMayUwR6_heLyPEzUM"},{"addr:housenumber":300,"addr:street":"Rue Ontario Est","wheelchair":"no","place_id":"ChIJJ_qBVksayUwRycDOKZnpDNc"},{"addr:housenumber":435,"addr:street":"Avenue du Mont-Royal Est","wheelchair":"yes","place_id":"ChIJL7-XqdEbyUwRiG3GdELRcA4"},{"addr:housenumber":3515,"addr:street":"Boulevard Saint-Laurent","wheelchair":"limited","place_id":"ChIJAfr5YEoayUwRcIcOp7rJLs4"},{"addr:housenumber":3601,"addr:street":"Boulevard Saint-Laurent","wheelchair":"yes","place_id":"ChIJoyWnfjUayUwRV46xX2doyf4"},{"addr:housenumber":901,"addr:street":"Square Victoria","wheelchair":"yes","place_id":"ChIJi16vr1sayUwRcUg0_7WIKBg"},{"addr:housenumber":865,"addr:street":"Rue Sainte-Catherine Est","wheelchair":"yes","place_id":"ChIJb46ZhbIbyUwRv_wHgC0r_A4"},{"addr:housenumber":3702,"addr:street":"Boulevard Saint-Laurent","wheelchair":"limited","place_id":"ChIJsxPfDzUayUwRapB0Adezys0"},{"addr:housenumber":7209,"addr:street":"Boulevard Taschereau","wheelchair":"yes","place_id":"ChIJHTWBn4AFyUwRKZacrgnfEY8"},{"addr:housenumber":3695,"addr:street":"Boulevard Saint-Laurent","wheelchair":"yes","place_id":"ChIJ5Vc1FzUayUwRgG35VLOhE3k"},{"addr:housenumber":1844,"addr:street":"Rue Sainte-Catherine Ouest","wheelchair":"no","place_id":"ChIJLWF7dWwayUwR_9_ABU9AfQ4"},{"addr:housenumber":1866,"addr:street":"Rue Sainte-Catherine Ouest","wheelchair":"no","place_id":"ChIJ6--udmwayUwRr6QrSsYysG4"},{"addr:housenumber":"","addr:street":"Avenue Mont-Royal Est","wheelchair":"limited","place_id":"ChIJIwV1xywayUwRfvNXXYslqnw"},{"addr:housenumber":501,"addr:street":"Avenue du Mont-Royal Est","wheelchair":"yes","place_id":"ChIJIZz7U9AbyUwRXyNWbMzOYVE"},{"addr:housenumber":4775,"addr:street":"Rue Jean Talon Ouest","wheelchair":"no","place_id":"ChIJmwvx-c8ZyUwRUnkURCGxrWs"},{"addr:housenumber":354,"addr:street":"Avenue du Mont-Royal Est","wheelchair":"no","place_id":"ChIJz5YmnNEbyUwRHgXDY50Uesw"},{"addr:housenumber":6595,"addr:street":"St-Hubert","wheelchair":"yes","place_id":"ChIJHdvHbmkZyUwRo6vGHLeN-uk"},{"addr:housenumber":2001,"addr:street":"Boulevard Robert-Bourassa","wheelchair":"yes","place_id":"ChIJr5cOe0YayUwRTe5ZVjfB5Hs"},{"addr:housenumber":5840,"addr:street":"Boulevard Taschereau","wheelchair":"yes","place_id":"ChIJwzhI-HMFyUwRhUcWyWJv4uA"},{"addr:housenumber":3638,"addr:street":"Rue Saint-Denis","wheelchair":"yes","place_id":"ChIJIbmagcobyUwRVeVbO1aEC50"},{"addr:housenumber":3620,"addr:street":"Rue Saint-Denis","wheelchair":"yes","place_id":"ChIJyQO8fbUbyUwRtoLFFdaOoEU"},{"addr:housenumber":1321,"addr:street":"Rue Sainte-Catherine Ouest","wheelchair":"yes","place_id":"ChIJOZdH-UEayUwRwSfrAn2FdTc"},{"addr:housenumber":201,"addr:street":"Rue Milton","wheelchair":"no","place_id":"ChIJIyJf7UkayUwR7FeUmaLX-pQ"},{"addr:housenumber":380,"addr:street":"Rue Sherbrooke Ouest","wheelchair":"yes","place_id":"ChIJWcA67EgayUwRxlcSug29nJ4"},{"addr:housenumber":625,"addr:street":"Rue Milton","wheelchair":"limited","place_id":"ChIJ70R9AEgayUwRxYHRK0rSv2o"},{"addr:housenumber":545,"addr:street":"Rue Milton","wheelchair":"yes","place_id":"ChIJDdYhBEgayUwR6qYToRg7rpc"},{"addr:housenumber":732,"addr:street":"Sainte-Catherine O","wheelchair":"limited","place_id":"ChIJ5e9MbEQayUwRchgr2blGhks"},{"addr:housenumber":1495,"addr:street":"Rue Sainte-Catherine Est","wheelchair":"yes","place_id":"ChIJ8XDT0a8byUwRdUAszVhZPnc"},{"addr:housenumber":1501,"addr:street":"Avenue McGill College","wheelchair":"yes","place_id":"ChIJLerEEEQayUwRLo1EnqcQ_lQ"},{"addr:housenumber":1472,"addr:street":"Rue Sainte-Catherine Ouest","wheelchair":"yes","place_id":"ChIJ-wJ7LGoayUwRIx8ahe73R3M"},{"addr:housenumber":2157,"addr:street":"Rue Guy","wheelchair":"yes","place_id":"ChIJdzaz8WoayUwR7Lu_n1quZa4"},{"addr:housenumber":4177,"addr:street":"Boulevard Saint-Laurent","wheelchair":"no","place_id":"ChIJ79-MN80byUwRQi0ZtH2adKE"},{"addr:housenumber":405,"addr:street":"Rue Saint-Antoine Ouest","wheelchair":"yes","place_id":"ChIJy2JoTFoayUwRyiQK8q_Mjg0"},{"addr:housenumber":4260,"addr:street":"Rue Wellington","wheelchair":"yes","place_id":"ChIJxYBuiWYQyUwRepCd1w-K3iM"},{"addr:housenumber":2081,"addr:street":"Rue Guy","wheelchair":"yes","place_id":"ChIJhZfs92oayUwRipHfAme3sKg"},{"addr:housenumber":1490,"addr:street":"Boulevard De Maisonneuve Ouest","wheelchair":"limited","place_id":"ChIJOx4NXWoayUwR3hxSAEZQLmI"},{"addr:housenumber":1455,"addr:street":"Rue Guy","wheelchair":"yes","place_id":"ChIJBQupUWoayUwRq4A66ZNOsX8"},{"addr:housenumber":3982,"addr:street":"Rue Ontario Est","wheelchair":"yes","place_id":"ChIJp9gmy4kbyUwRG-61WNhenak"},{"addr:housenumber":2959,"addr:street":"Rue Sherbrooke Est","wheelchair":"yes","place_id":"ChIJHa0Jse0byUwR7zfGAWgULY4"},{"addr:housenumber":200,"addr:street":"Rue Sainte-Catherine Est","wheelchair":"limited","place_id":"ChIJdYiKmE0ayUwRRlyAPalBVlM"},{"addr:housenumber":190,"addr:street":"Sainte-Catherine Ouest","wheelchair":"yes","place_id":"ChIJZziuqE8ayUwRr_zg4BQ_kXM"},{"addr:housenumber":705,"addr:street":"Rue Sainte-Catherine Ouest","wheelchair":"yes","place_id":"ChIJmZDiK0QayUwRJIwJtqGkm8k"},{"addr:housenumber":360,"addr:street":"Rue Sainte-Catherine Est","wheelchair":"yes","place_id":"ChIJzVT8Q00ayUwRkgocktDrHxE"},{"addr:housenumber":"2020A","addr:street":"Rue Crescent","wheelchair":"no","place_id":"ChIJDY0H0UEayUwRj0zfo0cdrKI"},{"addr:housenumber":2010,"addr:street":"Rue Crescent","wheelchair":"no","place_id":"ChIJf17j0EEayUwRhkRK9_dnhyM"},{"addr:housenumber":2045,"addr:street":"Rue Bishop","wheelchair":"no","place_id":"ChIJ2z6Af2oayUwR5q2iemIlz3E"},{"addr:housenumber":696,"addr:street":"Rue Sainte-Catherine Ouest","wheelchair":"no","place_id":"ChIJsZD1QUQayUwRYYu8OOlLZpE"},{"addr:housenumber":"","addr:street":"Rue Bishop","wheelchair":"no","place_id":"ChIJaaw1EGoayUwRCnYzOzk2zyo"},{"addr:housenumber":1384,"addr:street":"Rue Sherbrooke Ouest","wheelchair":"yes","place_id":"ChIJZTI9PUAayUwRbEdYrWeOeao"},{"addr:housenumber":1198,"addr:street":"Rue Sainte-Catherine Ouest","wheelchair":"yes","place_id":"ChIJae2oJUIayUwRtVi9HuZSmHY"},{"addr:housenumber":1205,"addr:street":"Rue Sainte-Catherine Ouest","wheelchair":"yes","place_id":"ChIJLT54KEIayUwRZ7cX6s9vlTA"},{"addr:housenumber":1435,"addr:street":"Rue Guy","wheelchair":"yes","place_id":"ChIJTZDST2oayUwRaskNHYRBqQY"},{"addr:housenumber":147,"addr:street":"Avenue Atwater","wheelchair":"yes","place_id":"ChIJy2oDVHgayUwRTjTEaKnvraA"},{"addr:housenumber":2600,"addr:street":"Ontario E.","wheelchair":"yes","place_id":"ChIJqwfUS5YbyUwRfKPOmZMV1Ds"},{"addr:housenumber":809,"addr:street":"Rue Ontario Est","wheelchair":"limited","place_id":"ChIJc9vjbrQbyUwRlfBrVYT2Ss8"},{"addr:housenumber":4358,"addr:street":"Boulevard Saint-Laurent","wheelchair":"yes","place_id":"ChIJ-4vwv9IbyUwRSHdrl2LRDlw"},{"addr:housenumber":355,"addr:street":"Rue Sherbrooke Ouest","wheelchair":"no","place_id":"ChIJS2It5UgayUwR1U1cT3uh2G0"},{"addr:housenumber":3891,"addr:street":"Boul. Saint-Laurent","wheelchair":"yes","place_id":"ChIJzcSdqDQayUwRgRgJI11s7tQ"},{"addr:housenumber":"6839 A","addr:street":"Rue Drolet","wheelchair":"limited","place_id":"ChIJ99ISoWwZyUwRAWk9Drz10Uw"},{"addr:housenumber":3194,"addr:street":"Rue Beaubien Est","wheelchair":"yes","place_id":"ChIJoWWTRFIZyUwRT_KTkeO8iSw"},{"addr:housenumber":4234,"addr:street":"Boulevard Saint-Laurent","wheelchair":"limited","place_id":"ChIJ23WbWs0byUwRdZQZBDfHGOs"},{"addr:housenumber":3872,"addr:street":"Boulevard Saint-Laurent","wheelchair":"limited","place_id":"ChIJ05zLoDQayUwRQLj-Ycax7Ms"},{"addr:housenumber":997,"addr:street":"Boulevard Saint-Laurent","wheelchair":"no","place_id":"ChIJ735joFEayUwRevAITKdxv2o"},{"addr:housenumber":1071,"addr:street":"Boulevard Saint-Laurent","wheelchair":"no","place_id":"ChIJJxgelVEayUwRAstxg6k4LZg"},{"addr:housenumber":1071,"addr:street":"Boulevard Saint-Laurent","wheelchair":"no","place_id":"ChIJJxgelVEayUwRAstxg6k4LZg"},{"addr:housenumber":1063,"addr:street":"Boulevard Saint-Laurent","wheelchair":"no","place_id":"EjMxMDYzIEJvdWwgU3QtTGF1cmVudCwgTW9udHLDqWFsLCBRQyBIMlogMUo2LCBDYW5hZGEiGxIZChQKEgkBDEbqURrJTBHaVmiVDs9o6hCnCA"},{"addr:housenumber":5629,"addr:street":"Avenue de Monkland","wheelchair":"limited","place_id":"ChIJU5_ooFIXyUwRUcpv2kLgQWU"},{"addr:housenumber":"","addr:street":"Rue Wellington","wheelchair":"yes","place_id":"ChIJkbbJs3gQyUwRQ4sqOrEKr0g"},{"addr:housenumber":2530,"addr:street":"Rue Masson","wheelchair":"yes","place_id":"ChIJj2G-puMbyUwRZ1nDuhf1olQ"},{"addr:housenumber":200,"addr:street":"Avenue du Mont-Royal Est","wheelchair":"yes","place_id":"ChIJ0wzjzNMbyUwRhpVf3Z96wOA"},{"addr:housenumber":250,"addr:street":"Avenue du Mont-Royal Est","wheelchair":"no","place_id":"ChIJCaGy1NMbyUwRsFn_i5aPmG8"},{"addr:housenumber":3852,"addr:street":"Rue Wellington","wheelchair":"no","place_id":"ChIJxwaDl2QQyUwR_SDr7XVqoys"},{"addr:housenumber":5617,"addr:street":"Avenue de Monkland","wheelchair":"yes","place_id":"ChIJM6dgoVIXyUwRbxbxhdtjLdk"},{"addr:housenumber":3485,"addr:street":"Boulevard Saint-Laurent","wheelchair":"no","place_id":"ChIJH9haWUoayUwREazydZjp3ak"},{"addr:housenumber":1387,"addr:street":"Rue Sainte-Catherine Est","wheelchair":"no","place_id":"EjoxMzg3IFJ1ZSBTYWludGUtQ2F0aGVyaW5lIEUsIE1vbnRyw6lhbCwgUUMgSDJMIDJINywgQ2FuYWRhIhsSGQoUChIJqemQL64byUwRjE-UxHFKAN4Q6wo"},{"addr:housenumber":"","addr:street":"Rue Wellington","wheelchair":"yes","place_id":"ChIJkbbJs3gQyUwRQ4sqOrEKr0g"},{"addr:housenumber":4578,"addr:street":"Rue Wellington","wheelchair":"no","place_id":"ChIJBZ2Ll2cQyUwRSrWCf3dR_fk"},{"addr:housenumber":"","addr:street":"Rue Wellington","wheelchair":"yes","place_id":"ChIJkbbJs3gQyUwRQ4sqOrEKr0g"},{"addr:housenumber":"","addr:street":"Rue Hochelaga","wheelchair":"yes","place_id":"ChIJLz2_qEAcyUwRgGauQaKTOSI"},{"addr:housenumber":"","addr:street":"Rue Hochelaga","wheelchair":"yes","place_id":"ChIJLz2_qEAcyUwRgGauQaKTOSI"},{"addr:housenumber":"","addr:street":"Rue Wellington","wheelchair":"no","place_id":"ChIJkbbJs3gQyUwRQ4sqOrEKr0g"},{"addr:housenumber":5011,"addr:street":"Rue Sherbrooke Ouest","wheelchair":"yes","place_id":"ChIJHxpf56UQyUwRloLv6umxFPY"},{"addr:housenumber":4816,"addr:street":"Rue Wellington","wheelchair":"limited","place_id":"ChIJ_XmqYF0QyUwRCBHilJLb8kU"},{"addr:housenumber":175,"addr:street":"Avenue Stillview","wheelchair":"yes","place_id":"ChIJPeg3AxE8yUwRQQareU6AGfM"},{"addr:housenumber":"","addr:street":"Avenue Dollard","wheelchair":"yes","place_id":"ChIJZ8S1yDkRyUwRh4_JfGmSic0"},{"addr:housenumber":1610,"addr:street":"Sherbrooke","wheelchair":"no","place_id":"ChIJS-Uj22oayUwRuxsYWcoc0aM"},{"addr:housenumber":639,"addr:street":"Rue Notre-Dame Ouest","wheelchair":"yes","place_id":"ChIJnyyr4lsayUwRZxYus3srPzU"},{"addr:housenumber":1455,"addr:street":"Rue Sainte-Catherine Ouest","wheelchair":"no","place_id":"ChIJ79GnPGoayUwRIGU0_j4UCgs"},{"addr:housenumber":1425,"addr:street":"Rue Mackay","wheelchair":"no","place_id":"ChIJy_hFPmoayUwRxu3PLhfVaZQ"},{"addr:housenumber":360,"addr:street":"Rue Jean-Talon Est","wheelchair":"no","place_id":"ChIJHfzrjhQZyUwR9l-HtQylin0"},{"addr:housenumber":1389,"addr:street":"Avenue Laurier Est","wheelchair":"yes","place_id":"ChIJHTR25N4byUwR_mce7gkPpq8"},{"addr:housenumber":1450,"addr:street":"Rue Sainte-Catherine Ouest","wheelchair":"no","place_id":"ChIJQUG1JmoayUwR3gTleKil2aI"},{"addr:housenumber":1446,"addr:street":"Rue Sainte-Catherine Ouest","wheelchair":"no","place_id":"ChIJv6tYIWoayUwRX-OyJRHutj8"},{"addr:housenumber":1444,"addr:street":"Rue Sainte-Catherine Ouest","wheelchair":"no","place_id":"ChIJI0FfIWoayUwRhZZh4niW0S0"},{"addr:housenumber":1438,"addr:street":"Rue Sainte-Catherine Ouest","wheelchair":"no","place_id":"ChIJQUG1JmoayUwRcx6mtCX9zEM"},{"addr:housenumber":1440,"addr:street":"Rue Sainte-Catherine Ouest","wheelchair":"no","place_id":"ChIJ19TrJmoayUwRKVDUlmUkSWo"},{"addr:housenumber":1434,"addr:street":"Rue Sainte-Catherine Ouest","wheelchair":"no","place_id":"ChIJuVjzH2oayUwRoaujK2_shrU"},{"addr:housenumber":2160,"addr:street":"Bishop","wheelchair":"no","place_id":"ChIJdxV6nWoayUwRSJ03L7H4FsY"},{"addr:housenumber":2160,"addr:street":"Rue Saint-Mathieu","wheelchair":"no","place_id":"ChIJDZ1gEWsayUwR7la4y2YK2Lw"},{"addr:housenumber":2100,"addr:street":"Bishop","wheelchair":"yes","place_id":"ChIJX3PqeD9mv4cRq5XfkPN18bU"},{"addr:housenumber":1455,"addr:street":"Boulevard De Maisonneuve Ouest","wheelchair":"yes","place_id":"ChIJaX1tY2oayUwRx9YEeFhP2ns"},{"addr:housenumber":1455,"addr:street":"Boulevard De Maisonneuve Ouest","wheelchair":"yes","place_id":"ChIJaX1tY2oayUwRx9YEeFhP2ns"},{"addr:housenumber":1439,"addr:street":"Rue Sainte-Catherine Ouest","wheelchair":"no","place_id":"ChIJa6DcFmoayUwRn9JLQVLJcSM"},{"addr:housenumber":1439,"addr:street":"Rue Sainte-Catherine Ouest","wheelchair":"no","place_id":"ChIJa6DcFmoayUwRn9JLQVLJcSM"},{"addr:housenumber":1420,"addr:street":"Rue Sainte-Catherine Ouest","wheelchair":"yes","place_id":"ChIJN7pMHmoayUwR3G27HAMoswE"},{"addr:housenumber":1455,"addr:street":"Boulevard De Maisonneuve Ouest","wheelchair":"yes","place_id":"ChIJaX1tY2oayUwRx9YEeFhP2ns"},{"addr:housenumber":1438,"addr:street":"Sherbrooke West","wheelchair":"no","place_id":"ChIJV-gIoGoayUwRDQVr9761JTE"},{"addr:housenumber":2130,"addr:street":"Bishop","wheelchair":"no","place_id":"ChIJF_Dozf98_ogRAbZu4rJglSU"},{"addr:housenumber":1426,"addr:street":"Rue Bishop","wheelchair":"no","place_id":"ChIJgaOREmoayUwRPOKMF_f8f1s"},{"addr:housenumber":1439,"addr:street":"Rue Sainte-Catherine Ouest","wheelchair":"no","place_id":"ChIJa6DcFmoayUwRn9JLQVLJcSM"},{"addr:housenumber":2150,"addr:street":"Rue Saint-Mathieu","wheelchair":"no","place_id":"ChIJtxgYEWsayUwRgC3KJpQgdlo"},{"addr:housenumber":1430,"addr:street":"Sherbrooke West","wheelchair":"no","place_id":"ChIJk4fzH0AayUwRVFYOrno6nig"},{"addr:housenumber":1434,"addr:street":"Sherbrooke West","wheelchair":"no","place_id":"ChIJoQPsH0AayUwRSdD8c6mU3io"},{"addr:housenumber":2140,"addr:street":"Bishop","wheelchair":"no","place_id":"ChIJW7pjck4NkIARrhJ-QBiDpO4"},{"addr:housenumber":1426,"addr:street":"Rue Bishop","wheelchair":"no","place_id":"ChIJgaOREmoayUwRPOKMF_f8f1s"},{"addr:housenumber":1685,"addr:street":"Boulevard De Maisonneuve Ouest","wheelchair":"no","place_id":"ChIJ2flZCGsayUwRf7pNVl2hCHo"},{"addr:housenumber":1695,"addr:street":"Boulevard De Maisonneuve Ouest","wheelchair":"yes","place_id":"ChIJbYF0CWsayUwRXjPw8AZDYp4"},{"addr:housenumber":2055,"addr:street":"Rue Saint-Mathieu","wheelchair":"no","place_id":"ChIJ0UPgDmsayUwRXsaigwvPTaM"},{"addr:housenumber":2107,"addr:street":"Rue Saint-Mathieu","wheelchair":"no","place_id":"EjUyMTA3IFJ1ZSBTYWludCBNYXRoaWV1LCBNb250csOpYWwsIFFDIEgzSCAySjQsIENhbmFkYSIbEhkKFAoSCSsRQA5rGslMETrGhO92XEdyELsQ"},{"addr:housenumber":2121,"addr:street":"Rue Saint-Mathieu","wheelchair":"no","place_id":"ChIJg0S6GmsayUwRbY4jHqmxhM8"},{"addr:housenumber":2070,"addr:street":"Rue Saint-Mathieu","wheelchair":"no","place_id":"EjUyMDcwIFJ1ZSBTYWludCBNYXRoaWV1LCBNb250csOpYWwsIFFDIEgzSCAySjQsIENhbmFkYSIbEhkKFAoSCSsRQA5rGslMETvGhO92XEdyEJYQ"},{"addr:housenumber":2100,"addr:street":"Rue Saint-Mathieu","wheelchair":"limited","place_id":"ChIJaZrZEWsayUwRci4BNbKLHUY"},{"addr:housenumber":2130,"addr:street":"Rue Saint-Mathieu","wheelchair":"no","place_id":"ChIJjfWWEWsayUwRnHxgJdIXVNg"},{"addr:housenumber":86,"addr:street":"Rue Notre-Dame Ouest","wheelchair":"no","place_id":"ChIJq9LVQFcayUwRpfHD8twP-hc"},{"addr:housenumber":80,"addr:street":"Rue Notre-Dame Ouest","wheelchair":"no","place_id":"ChIJq9LVQFcayUwRTSmXAoaDJCU"},{"addr:housenumber":6297,"addr:street":"Avenue de Monkland","wheelchair":"yes","place_id":"ChIJ3-0gWkoXyUwRAeCz4YVqvZ4"},{"addr:housenumber":"","addr:street":"Place Moreau","wheelchair":"no","place_id":"ChIJ1d432E8N5kcRkmToTfAMwZ4"},{"addr:housenumber":6363,"addr:street":"Autoroute Transcanadienne","wheelchair":"yes","place_id":"ChIJ8WmC8yAYyUwRYgdpDwuhpxQ"},{"addr:housenumber":5409,"addr:street":"Queen-Mary","wheelchair":"yes","place_id":"ChIJ0ZvXXVcXyUwRp2FVHADpaz0"},{"addr:housenumber":698,"addr:street":"Rue Sainte-Catherine","wheelchair":"yes","place_id":"ChIJH33VaUQayUwRm3q1Pwb_340"},{"addr:housenumber":55,"addr:street":"Rue Saint-Jacques","wheelchair":"yes","place_id":"ChIJPVhyzFAayUwRNb8rpeHR-Is"},{"addr:housenumber":1500,"addr:street":"Avenue Atwater","wheelchair":"yes","place_id":"ChIJ0SZJXG0ayUwRJKif_0GP87Q"},{"addr:housenumber":1675,"addr:street":"Rue Sainte-Catherine Ouest","wheelchair":"yes","place_id":"ChIJ5Wv7lGsayUwRUPjyWZT8l7E"},{"addr:housenumber":900,"addr:street":"Avenue du Mont-Royal Est","wheelchair":"limited","place_id":"ChIJ_QRbctAbyUwRKeAE5ydlRsg"},{"addr:housenumber":1657,"addr:street":"Rue Sainte-Catherine Ouest","wheelchair":"limited","place_id":"ChIJSVCcwGsayUwRlmKyoiT3aro"},{"addr:housenumber":1801,"addr:street":"Boulevard De Maisonneuve Ouest","wheelchair":"no","place_id":"ChIJq8NnC2sayUwRSVKvZhYYlHc"},{"addr:housenumber":1445,"addr:street":"Rue Guy","wheelchair":"no","place_id":"ChIJDxLEUWoayUwRCt-8ZhFLf5E"},{"addr:housenumber":3864,"addr:street":"Boulevard Saint-Laurent","wheelchair":"limited","place_id":"ChIJ4V5LoTQayUwR_eV5xTvKDQI"},{"addr:housenumber":2125,"addr:street":"Rue Guy","wheelchair":"no","place_id":"EiMyMTI1IFJ1ZSBHdXksIE1vbnRyw6lhbCwgUUMsIENhbmFkYSIbEhkKFAoSCQGh-vhqGslMEQtuthM1jVSqEM0Q"},{"addr:housenumber":4127,"addr:street":"Boulevard Saint-Laurent","wheelchair":"yes","place_id":"ChIJNY64Ls0byUwRk4it289Nbso"},{"addr:housenumber":977,"addr:street":"rue Sainte-Catherine Ouest","wheelchair":"yes","place_id":"ChIJ1e8D-kMayUwRBSZa6l1oMwA"},{"addr:housenumber":1,"addr:street":"Mont-Royal Ouest","wheelchair":"yes","place_id":"ChIJ9RAgDtMbyUwRjt7rEVNGmgc"},{"addr:housenumber":1030,"addr:street":"Rue Mackay","wheelchair":"no","place_id":"ChIJZ-nA82gayUwRGkUwvH3WMYU"},{"addr:housenumber":2396,"addr:street":"Rue Beaubien Est","wheelchair":"yes","place_id":"ChIJ-8iQqVoZyUwRwqEoaZySLZU"},{"addr:housenumber":7450,"addr:street":"Boulevard Taschereau","wheelchair":"yes","place_id":"ChIJb52xV3kPyUwRhaRHzYu8VtE"},{"addr:housenumber":5101,"addr:street":"Avenue du Parc","wheelchair":"yes","place_id":"ChIJA9Yb_H8ZyUwR1_b_k-T8pR4"},{"addr:housenumber":5029,"addr:street":"Avenue du Parc","wheelchair":"yes","place_id":"ChIJAZjNTNUbyUwRfLWUq1ZT7H4"},{"addr:housenumber":1871,"addr:street":"Rue Sainte-Catherine Ouest","wheelchair":"limited","place_id":"ChIJGQmed2wayUwREeffurzp5bM"},{"addr:housenumber":8330,"addr:street":"Boulevard Taschereau","wheelchair":"yes","place_id":"ChIJb1rtDHQPyUwRWRfL39O1l4c"},{"addr:housenumber":7000,"addr:street":"Avenue Auteuil","wheelchair":"yes","place_id":"Ei03MDAwIEF2ZW51ZSBBdXRldWlsLCBCcm9zc2FyZCwgUUMgSjRaLCBDYW5hZGEiGxIZChQKEgkjtFDreAXJTBHLh2-xz5BYGhDYNg"},{"addr:housenumber":"5235A","addr:street":"Avenue du Parc","wheelchair":"limited","place_id":"ChIJ356LnX8ZyUwRAxqwX42dWMA"},{"addr:housenumber":3000,"addr:street":"Rue Notre-Dame Ouest","wheelchair":"no","place_id":"ChIJUwZo1HkayUwRhf3iPTqgf7c"},{"addr:housenumber":1232,"addr:street":"Rue Montagne","wheelchair":"no","place_id":"ChIJiVlkBkIayUwRWqSTJlPCYRU"},{"addr:housenumber":3895,"addr:street":"Boulevard Saint-Laurent","wheelchair":"yes","place_id":"ChIJHwybpzQayUwRTP-QeBOxPGE"},{"addr:housenumber":2460,"addr:street":"Rue Dandurand","wheelchair":"no","place_id":"ChIJi73wfOIbyUwR9YsOwPJB-vM"},{"addr:housenumber":170,"addr:street":"Rue Prince Arthur Est","wheelchair":"yes","place_id":"ChIJ6WYhr0oayUwRb_WWJM-f-i4"},{"addr:housenumber":1140,"addr:street":"Rue Guy","wheelchair":"designated","place_id":"ChIJmXRLH2kayUwRZyBOTiWBOAQ"},{"addr:housenumber":99,"addr:street":"Avenue Viger Ouest","wheelchair":"yes","place_id":"ChIJFXpi_lAayUwRWq4krRpYOZI"},{"addr:housenumber":1233,"addr:street":"Avenue Lajoie","wheelchair":"no","place_id":"ChIJW_dXbp0ZyUwRF-O6-sLG6D0"},{"addr:housenumber":161,"addr:street":"Rue Saint-Paul Est","wheelchair":"no","place_id":"ChIJL56zX1YayUwR2COfGtdsbxU"},{"addr:housenumber":1720,"addr:street":"Rue Saint-Denis","wheelchair":"no","place_id":"ChIJGbTpV7MbyUwRIc__JBz3bc0"},{"addr:housenumber":1249,"addr:street":"Rue Metcalfe","wheelchair":"limited","place_id":"ChIJsaholEMayUwRMkTHTmsbNc8"},{"addr:housenumber":87,"addr:street":"Rue Sainte-Catherine Est","wheelchair":"yes","place_id":"ChIJm7FZxk0ayUwRSoADPn5MnUI"},{"addr:housenumber":1431,"addr:street":"Sherbrooke West","wheelchair":"no","place_id":"EjIxNDMxIFJ1ZSBTaGVyYnJvb2tlLCBNb250csOpYWwsIFFDIEgzRyAyRzIsIENhbmFkYSIbEhkKFAoSCcEK4x5AGslMEYNesOKQinLkEJcL"},{"addr:housenumber":2085,"addr:street":"Boulevard Marcel-Laurin","wheelchair":"yes","place_id":"ChIJbyuvv3UYyUwRyjFtRuiMC9A"},{"addr:housenumber":2030,"addr:street":"Rue Saint-Mathieu","wheelchair":"yes","place_id":"ChIJrUY3DGsayUwRGWBcT2bVQAA"},{"addr:housenumber":1626,"addr:street":"Rue Sherbrooke Ouest","wheelchair":"no","place_id":"ChIJGUepIGsayUwRUzHcD6IrEj8"},{"addr:housenumber":1632,"addr:street":"Rue Sherbrooke Ouest","wheelchair":"no","place_id":"ChIJQz2_2WoayUwRT8fKft8cju4"},{"addr:housenumber":1639,"addr:street":"Rue Sherbrooke Ouest","wheelchair":"limited","place_id":"ChIJW8Nt1GoayUwRfogqMAv6lQM"},{"addr:housenumber":1635,"addr:street":"Rue Sherbrooke Ouest","wheelchair":"limited","place_id":"ChIJgcyU02oayUwRbzFatZk8xFA"},{"addr:housenumber":1621,"addr:street":"Rue Sherbrooke Ouest","wheelchair":"no","place_id":"ChIJxZ180WoayUwRG8iCumuRDA4"},{"addr:housenumber":1610,"addr:street":"Sherbrooke","wheelchair":"no","place_id":"ChIJS-Uj22oayUwRuxsYWcoc0aM"},{"addr:housenumber":1455,"addr:street":"Boulevard de Maisonneuve","wheelchair":"yes","place_id":"ChIJaX1tY2oayUwRx9YEeFhP2ns"},{"addr:housenumber":1538,"addr:street":"sherbrooke","wheelchair":"yes","place_id":"ChIJdbiBwWoayUwRZNEPhzrP1Gk"},{"addr:housenumber":2110,"addr:street":"mackay","wheelchair":"yes","place_id":"ChIJFUO_kWoayUwR_PYA8AHTEzo"},{"addr:housenumber":1609,"addr:street":"Rue Saint-Catherine","wheelchair":"no","place_id":"ChIJR0dEyWsayUwRJeviEcBlzyQ"},{"addr:housenumber":1631,"addr:street":"Rue Sainte-Catherine","wheelchair":"no","place_id":"ChIJKSEQyGsayUwRHn0_E8m2Hs0"},{"addr:housenumber":1456,"addr:street":"Sherbrooke","wheelchair":"no","place_id":"ChIJD5eb0qqzt0wRzHBwW1PVgfY"},{"addr:housenumber":1627,"addr:street":"Rue Sainte-Catherine","wheelchair":"no","place_id":"ChIJ3WdAyGsayUwRf4RgGQpXIEs"},{"addr:housenumber":1448,"addr:street":"Sherbrooke","wheelchair":"no","place_id":"ChIJC_uwoWoayUwRLwbNu2ImBTg"},{"addr:housenumber":1444,"addr:street":"Sherbrooke","wheelchair":"no","place_id":"ChIJC2z8U2mzt0wRMHhVoLPF4YA"},{"addr:housenumber":1626,"addr:street":"Rue Sainte-Catherine Ouest","wheelchair":"no","place_id":"ChIJSzOe62sayUwR5ibln4YJ8IM"},{"addr:housenumber":1684,"addr:street":"Boulevard De Masonneuve Ouest","wheelchair":"no","place_id":"ChIJg0bYoGsayUwRyhestILypu8"},{"addr:housenumber":1618,"addr:street":"Rue Sainte-Catherine Ouest","wheelchair":"yes","place_id":"ChIJB_fSw2sayUwRcHwYNL086_g"},{"addr:housenumber":2145,"addr:street":"Mackay","wheelchair":"no","place_id":"ChIJ2yG8pcT2wokRnhwFTpnCAbk"},{"addr:housenumber":1220,"addr:street":"cresent","wheelchair":"no","place_id":"ChIJP4xSdHrKTYYREjeynblkiQM"},{"addr:housenumber":1625,"addr:street":"Boulevard De Maisonneuve Ouest","wheelchair":"no","place_id":"ChIJ2fXIqmsayUwRQA2FoGT_Bd8"},{"addr:housenumber":1625,"addr:street":"Boulevard De Maisonneuve Ouest","wheelchair":"no","place_id":"ChIJ2fXIqmsayUwRQA2FoGT_Bd8"},{"addr:housenumber":1645,"addr:street":"Boulevard De Maisonneuve Ouest","wheelchair":"limited","place_id":"ChIJ7woBqmsayUwRm7RP6w3mqhE"},{"addr:housenumber":1645,"addr:street":"Boulevard De Maisonneuve Ouest","wheelchair":"limited","place_id":"ChIJ7woBqmsayUwRm7RP6w3mqhE"},{"addr:housenumber":1665,"addr:street":"Boulevard De Maisonneuve Ouest","wheelchair":"no","place_id":"ChIJgetjCGsayUwRhRdG-3JkM-g"},{"addr:housenumber":"1431a","addr:street":"Rue bishop","wheelchair":"no","place_id":"ChIJwca7DGoayUwRnC8UISP1aQ4"},{"addr:housenumber":1407,"addr:street":"Rue Bishop","wheelchair":"no","place_id":"ChIJpYEcEGoayUwRBp3sEfXgNDk"},{"addr:housenumber":1600,"addr:street":"Boulevard de Maisonneuve","wheelchair":"no","place_id":"ChIJ7x77rGsayUwRbM6GHdmvBwY"},{"addr:housenumber":1455,"addr:street":"Sherbrooke","wheelchair":"bad","place_id":"ChIJHwNUoWoayUwR4E5PKmLk35k"},{"addr:housenumber":1682,"addr:street":"Rue Sherbrooke Ouest","wheelchair":"no","place_id":"EjIxNjgyIFJ1ZSBTaGVyYnJvb2tlLCBNb250csOpYWwsIFFDIEgzSCAxRTIsIENhbmFkYSIbEhkKFAoSCc8IMyhrGslMEWc511OFx_8cEJIN"},{"addr:housenumber":1676,"addr:street":"Rue Sherbrooke Ouest","wheelchair":"no","place_id":"EjIxNjc2IFJ1ZSBTaGVyYnJvb2tlLCBNb250csOpYWwsIFFDIEgzSCAxRTIsIENhbmFkYSIbEhkKFAoSCc8IMyhrGslMEWc511OFx_8cEIwN"},{"addr:housenumber":1637,"addr:street":"Rue Sherbrooke Ouest","wheelchair":"limited","place_id":"EjIxNjM3IFJ1ZSBTaGVyYnJvb2tlLCBNb250csOpYWwsIFFDIEgzSCAxRTIsIENhbmFkYSIbEhkKFAoSCTneCNdqGslMEWytzHzwwy5REOUM"},{"addr:housenumber":1625,"addr:street":"Boulevard De Maisonneuve Ouest","wheelchair":"limited","place_id":"ChIJ2fXIqmsayUwRQA2FoGT_Bd8"},{"addr:housenumber":222,"addr:street":"Avenue du Mont-Royal Est","wheelchair":"yes","place_id":"ChIJh1C60tMbyUwR5fvK4CCD6Zc"},{"addr:housenumber":1670,"addr:street":"Rue Sherbrooke Ouest","wheelchair":"limited","place_id":"EjIxNjcwIFJ1ZSBTaGVyYnJvb2tlLCBNb250csOpYWwsIFFDIEgzSCAxRTIsIENhbmFkYSIbEhkKFAoSCc8IMyhrGslMEWc511OFx_8cEIYN"},{"addr:housenumber":1642,"addr:street":"Rue Sherbrooke Ouest","wheelchair":"no","place_id":"EjIxNjQyIFJ1ZSBTaGVyYnJvb2tlLCBNb250csOpYWwsIFFDIEgzSCAxQzksIENhbmFkYSIbEhkKFAoSCTneCNdqGslMEW2tzHzwwy5REOoM"},{"addr:housenumber":1694,"addr:street":"Rue Sherbrooke Ouest","wheelchair":"no","place_id":"EjIxNjk0IFJ1ZSBTaGVyYnJvb2tlLCBNb250csOpYWwsIFFDIEgzSCAxRTIsIENhbmFkYSIbEhkKFAoSCc8IMyhrGslMEWc511OFx_8cEJ4N"},{"addr:housenumber":1629,"addr:street":"Rue Sherbrooke Ouest","wheelchair":"no","place_id":"ChIJJ-b302oayUwRIlnXAlRJBPE"},{"addr:housenumber":1501,"addr:street":"Rue Marie-Anne Est","wheelchair":"no","place_id":"ChIJPSwIm8QbyUwReHffFaZrlGQ"},{"addr:housenumber":5185,"addr:street":"Avenue Papineau","wheelchair":"no","place_id":"ChIJ-QKrPN4byUwR1so5koC8bfA"},{"addr:housenumber":1014,"addr:street":"Rue Sainte-Catherine Est","wheelchair":"yes","place_id":"ChIJZ6txdrIbyUwR4tS2XBTftLs"},{"addr:housenumber":1255,"addr:street":"Jeanne-Mance","wheelchair":"yes","place_id":"EjAxMjU1IFJ1ZSBKZWFubmUtTWFuY2UsIE1vbnRyw6lhbCwgUUMgSDJYLCBDYW5hZGEiGxIZChQKEgnVprW9TxrJTBEifwc1Y050OxDnCQ"},{"addr:housenumber":"","addr:street":"Rue Sainte-Catherine Est","wheelchair":"limited","place_id":"ChIJO7XexpkbyUwReyppqaNQNys"},{"addr:housenumber":8127,"addr:street":"Boulevard Saint-Michel","wheelchair":"yes","place_id":"ChIJrUGoDtIeyUwRkCpJ76P4xso"},{"addr:housenumber":2150,"addr:street":"Rue Mackay","wheelchair":"yes","place_id":"ChIJs9eSlmoayUwRtWzbz37wyU0"},{"addr:housenumber":1658,"addr:street":"Rue Sherbrooke Ouest","wheelchair":"no","place_id":"ChIJHWn-J2sayUwRAo8dbJEGxcs"},{"addr:housenumber":1664,"addr:street":"Rue Sherbrooke Ouest","wheelchair":"no","place_id":"ChIJXebZJ2sayUwRpa92JjUPMW0"},{"addr:housenumber":1451,"addr:street":"Avenue du Mont-Royal Est","wheelchair":"yes","place_id":"ChIJf2r9WdsbyUwROug1hDRqsRs"},{"addr:housenumber":1860,"addr:street":"Boulevard De Maisonneuve Ouest","wheelchair":"bad","place_id":"ChIJNW7Ue2sayUwRzH9d2TY7kEg"},{"addr:housenumber":4091,"addr:street":"rue Molson","wheelchair":"yes","place_id":"ChIJt7O1gO4byUwRpL7gA_r_ZrA"},{"addr:housenumber":"","addr:street":"Place Jacques-Cartier","wheelchair":"no","place_id":"ChIJY6aLhVYayUwR92cn3qLBE_Y"},{"addr:housenumber":862,"addr:street":"Rue Sainte-Catherine Est","wheelchair":"yes","place_id":"ChIJL-UOhLIbyUwR1kWCXziVq_s"},{"addr:housenumber":360,"addr:street":"Rue McGill","wheelchair":"yes","place_id":"ChIJpUoQ11gayUwRVGguRsKxSpA"},{"addr:housenumber":2041,"addr:street":"Rue Saint-Denis","wheelchair":"no","place_id":"ChIJdadIlbQbyUwRvR1qEHHxl6g"},{"addr:housenumber":1862,"addr:street":"Boulevard De Maisonneuve Ouest","wheelchair":"bad","place_id":"ChIJ7xpseWsayUwRfuisVbvVLQk"},{"addr:housenumber":1850,"addr:street":"Boulevard De Maisonneuve Ouest","wheelchair":"bad","place_id":"ChIJx2i_eWsayUwRC-_r3BGT0CA"},{"addr:housenumber":1857,"addr:street":"Boulevard De Maisonneuve Ouest","wheelchair":"no","place_id":"ChIJlf-memsayUwR4tsmJ9JJcV0"},{"addr:housenumber":4093,"addr:street":"Rue Molson","wheelchair":"yes","place_id":"ChIJEdjUi-4byUwRPtVFbFfZEvw"},{"addr:housenumber":1819,"addr:street":"Boulevard De Maisonneuve Ouest","wheelchair":"bad","place_id":"ChIJm3WgdmsayUwRc91mqPVJbU0"},{"addr:housenumber":1805,"addr:street":"Boulevard De Maisonneuve Ouest","wheelchair":"bad","place_id":"ChIJ3SmsdGsayUwR0LtqCTCzHU4"},{"addr:housenumber":1801,"addr:street":"Boulevard De Maisonneuve Ouest","wheelchair":"yes","place_id":"ChIJq8NnC2sayUwRSVKvZhYYlHc"},{"addr:housenumber":2000,"addr:street":"Rue Saint-Marc","wheelchair":"yes","place_id":"ChIJr09QYmsayUwRs7AFrk33ZzU"},{"addr:housenumber":2000,"addr:street":"Rue Saint-Marc","wheelchair":"yes","place_id":"ChIJr09QYmsayUwRs7AFrk33ZzU"},{"addr:housenumber":2125,"addr:street":"Rue Saint-Marc","wheelchair":"no","place_id":"ChIJ9UevaGsayUwRi6q-l88Jg6o"},{"addr:housenumber":2125,"addr:street":"Rue Saint-Marc","wheelchair":"no","place_id":"ChIJ9UevaGsayUwRi6q-l88Jg6o"},{"addr:housenumber":2125,"addr:street":"Rue Saint-Marc","wheelchair":"no","place_id":"ChIJ9UevaGsayUwRi6q-l88Jg6o"},{"addr:housenumber":1817,"addr:street":"Boulevard De Maisonneuve Ouest","wheelchair":"yes","place_id":"EjoxODE3IEJvdWxldmFyZCBkZSBNYWlzb25uZXV2ZSBPLCBNb250csOpYWwsIFFDIEgzSCwgQ2FuYWRhIhsSGQoUChIJ7W0TdGsayUwRrOaB-TQxt0cQmQ4"},{"addr:housenumber":1465,"addr:street":"Rue Crescent","wheelchair":"no","place_id":"ChIJRYy03EEayUwRo-VktIWUuUs"},{"addr:housenumber":1272,"addr:street":"Rue Sainte-Catherine Est","wheelchair":"yes","place_id":"ChIJhaLrBK4byUwRimpX3AbsR_c"},{"addr:housenumber":1407,"addr:street":"Rue Saint-Marc","wheelchair":"yes","place_id":"ChIJDaBEeGwayUwRDzPgVUtVyyk"},{"addr:housenumber":1375,"addr:street":"Avenue Laurier Est","wheelchair":"no","place_id":"ChIJiYY94d4byUwRav_uiJLtCos"},{"addr:housenumber":1375,"addr:street":"Avenue Laurier Est","wheelchair":"no","place_id":"ChIJiYY94d4byUwRav_uiJLtCos"},{"addr:housenumber":"3555A","addr:street":"Rue Ontario Est","wheelchair":"no","place_id":"ChIJIyfJ6Y4byUwRszgl2P8rZbs"},{"addr:housenumber":"","addr:street":"Sainte-Catherine","wheelchair":"yes","place_id":"ChIJ17w2sB8SyUwRvAOysTxeNrI"},{"addr:housenumber":1576,"addr:street":"Avenue du Mont-Royal Est","wheelchair":"no","place_id":"ChIJq05nstwbyUwRFEI9wCZB2tw"},{"addr:housenumber":999,"addr:street":"Boulevard De Maisonneuve Ouest","wheelchair":"yes","place_id":"ChIJtx27TEEayUwRSkHfQYkhfDQ"},{"addr:housenumber":"","addr:street":"Sainte-Catherine","wheelchair":"yes","place_id":"ChIJ17w2sB8SyUwRvAOysTxeNrI"},{"addr:housenumber":1817,"addr:street":"Rue Sainte-Catherine Ouest","wheelchair":"no","place_id":"ChIJB_PmjWsayUwR9OtmjxiS0fA"},{"addr:housenumber":250,"addr:street":"Rue Masson","wheelchair":"yes","place_id":"ChIJJ4jGq9z9xkwRlUiI9mM8TzU"},{"addr:housenumber":1245,"addr:street":"Rue Bishop","wheelchair":"yes","place_id":"ChIJjzNI9GkayUwRq5oPx6-HCzM"},{"addr:housenumber":15,"addr:street":"Place Simon-Valois","wheelchair":"limited","place_id":"ChIJV9ulE4kbyUwRwQmAFM7svx0"},{"addr:housenumber":1233,"addr:street":"Rue Marie-Anne Est","wheelchair":"no","place_id":"Ei4xMjMzIFJ1ZSBNYXJpZS1Bbm5lLCBNb250csOpYWwsIFFDIEgySiwgQ2FuYWRhIhsSGQoUChIJJQ1CPcUbyUwRqgjw56FB2N0Q0Qk"},{"addr:housenumber":"","addr:street":"Sainte-Catherine","wheelchair":"yes","place_id":"ChIJ17w2sB8SyUwRvAOysTxeNrI"},{"addr:housenumber":3632,"addr:street":"Rue Ontario Est","wheelchair":"yes","place_id":"ChIJ-3zM0Y4byUwRgkeM1YWc-Go"},{"addr:housenumber":860,"addr:street":"Avenue du Mont Royal","wheelchair":"limited","place_id":"ChIJcyiPbtAbyUwRh4SLbnNVR_g"},{"addr:housenumber":3340,"addr:street":"Rue Ontario Est","wheelchair":"no","place_id":"ChIJqz6DSI4byUwRPnuTSbIqFc4"},{"addr:housenumber":1380,"addr:street":"Rue Jean-Talon Est","wheelchair":"no","place_id":"ChIJm87USj8ZyUwRgzkFmbshwTc"},{"addr:housenumber":273,"addr:street":"Rue Saint-Paul","wheelchair":"no","place_id":"ChIJQ_7xgFYayUwRcv0Jy3zyz0A"},{"addr:housenumber":464,"addr:street":"Rue McGill","wheelchair":"no","place_id":"ChIJc7iDQ1kayUwRsiY3_SHCnMI"},{"addr:housenumber":3692,"addr:street":"Rue Wellington","wheelchair":"no","place_id":"ChIJvbjEqmQQyUwRc2DNddif_wI"},{"addr:housenumber":3482,"addr:street":"Rue Saint-Denis","wheelchair":"no","place_id":"ChIJ81F4bbUbyUwRWLA4MXHA1fQ"},{"addr:housenumber":145,"addr:street":"Avenue du Mont-Royal Est","wheelchair":"yes","place_id":"ChIJiZgvttMbyUwRuekuAp80aGE"},{"addr:housenumber":465,"addr:street":"Avenue du Mont-Royal Est","wheelchair":"yes","place_id":"ChIJ3dFDq9EbyUwRfZ8VtZk_nNs"},{"addr:housenumber":1155,"addr:street":"Rue Guy","wheelchair":"yes","place_id":"ChIJ85ZtDWkayUwRa8t6pUD_AQs"},{"addr:housenumber":"","addr:street":"Sainte-Catherine","wheelchair":"yes","place_id":"ChIJ17w2sB8SyUwRvAOysTxeNrI"},{"addr:housenumber":"","addr:street":"Mackay","wheelchair":"no","place_id":"ChIJB1bTovfT22sRAAQhf_HuAAU"},{"addr:housenumber":"","addr:street":"Mackay","wheelchair":"no","place_id":"ChIJB1bTovfT22sRAAQhf_HuAAU"},{"addr:housenumber":"","addr:street":"Mackay","wheelchair":"no","place_id":"ChIJB1bTovfT22sRAAQhf_HuAAU"},{"addr:housenumber":"","addr:street":"Mackay","wheelchair":"no","place_id":"ChIJB1bTovfT22sRAAQhf_HuAAU"},{"addr:housenumber":"","addr:street":"Mackay","wheelchair":"no","place_id":"ChIJB1bTovfT22sRAAQhf_HuAAU"},{"addr:housenumber":"","addr:street":"Mackay","wheelchair":"no","place_id":"ChIJB1bTovfT22sRAAQhf_HuAAU"},{"addr:housenumber":"","addr:street":"Mackay","wheelchair":"no","place_id":"ChIJB1bTovfT22sRAAQhf_HuAAU"},{"addr:housenumber":"","addr:street":"Mackay","wheelchair":"no","place_id":"ChIJB1bTovfT22sRAAQhf_HuAAU"},{"addr:housenumber":"","addr:street":"Mackay","wheelchair":"no","place_id":"ChIJB1bTovfT22sRAAQhf_HuAAU"},{"addr:housenumber":1204,"addr:street":"Bishop","wheelchair":"no","place_id":"ChIJc7iVpJPVJIgRTHsT-XE8oi4"},{"addr:housenumber":"","addr:street":"Mackay","wheelchair":"no","place_id":"ChIJB1bTovfT22sRAAQhf_HuAAU"},{"addr:housenumber":1220,"addr:street":"Bishop","wheelchair":"yes","place_id":"ChIJ961o6cCstFIRGs23RHLINHk"},{"addr:housenumber":"","addr:street":"Mackay","wheelchair":"no","place_id":"ChIJB1bTovfT22sRAAQhf_HuAAU"},{"addr:housenumber":"","addr:street":"Mackay","wheelchair":"no","place_id":"ChIJB1bTovfT22sRAAQhf_HuAAU"},{"addr:housenumber":"","addr:street":"Mackay","wheelchair":"no","place_id":"ChIJB1bTovfT22sRAAQhf_HuAAU"},{"addr:housenumber":1204,"addr:street":"Bishop","wheelchair":"no","place_id":"ChIJc7iVpJPVJIgRTHsT-XE8oi4"},{"addr:housenumber":1220,"addr:street":"Bishop","wheelchair":"yes","place_id":"ChIJ961o6cCstFIRGs23RHLINHk"},{"addr:housenumber":1234,"addr:street":"Bishop","wheelchair":"no","place_id":"ChIJx27ejGkayUwRR35V_e2Nmq8"},{"addr:housenumber":1228,"addr:street":"Bishop","wheelchair":"no","place_id":"ChIJ9yRhdAf_DogR02cpKy6sXL4"},{"addr:housenumber":1237,"addr:street":"Rue Guy","wheelchair":"no","place_id":"ChIJg-UwfmkayUwRBLICtmSrOuc"},{"addr:housenumber":1209,"addr:street":"Rue Guy","wheelchair":"no","place_id":"ChIJ58YlemkayUwRAHidMwQMMu0"},{"addr:housenumber":1239,"addr:street":"Rue Guy","wheelchair":"no","place_id":"ChIJkddK1GsayUwRrmmDI-cLCyw"},{"addr:housenumber":1265,"addr:street":"Bishop","wheelchair":"no","place_id":"ChIJEQEwY5PVJIgRluDljRKFhb4"},{"addr:housenumber":1253,"addr:street":"Rue Guy","wheelchair":"limited","place_id":"ChIJA1SNfWkayUwRn0_4Y2ZJVkU"},{"addr:housenumber":2125,"addr:street":"Rue Saint-Marc","wheelchair":"bad","place_id":"ChIJ9UevaGsayUwRi6q-l88Jg6o"},{"addr:housenumber":1445,"addr:street":"rue Roberval","wheelchair":"yes","place_id":"ChIJg1wqkjYByUwRgviZ0itgAmA"},{"addr:housenumber":2000,"addr:street":"Rue Saint-Marc","wheelchair":"bad","place_id":"ChIJr09QYmsayUwRs7AFrk33ZzU"},{"addr:housenumber":1235,"addr:street":"Rue Guy","wheelchair":"no","place_id":"ChIJ61X11WsayUwRicldu3N9W5A"},{"addr:housenumber":1325,"addr:street":"Sainte-Catherine St W","wheelchair":"yes","place_id":"ChIJm6ge_EEayUwRxuDLF5hHs2c"},{"addr:housenumber":1267,"addr:street":"Bishop","wheelchair":"no","place_id":"ChIJa_O5QYll24AR_TX7abr71-8"},{"addr:housenumber":1266,"addr:street":"Rue Saint-Mathieu","wheelchair":"no","place_id":"ChIJNw-p8WsayUwRK8lMbJpThVs"},{"addr:housenumber":2125,"addr:street":"Rue Saint-Marc","wheelchair":"bad","place_id":"ChIJ9UevaGsayUwRi6q-l88Jg6o"},{"addr:housenumber":2000,"addr:street":"Rue Saint-Marc","wheelchair":"bad","place_id":"ChIJr09QYmsayUwRs7AFrk33ZzU"},{"addr:housenumber":2125,"addr:street":"Rue Saint-Marc","wheelchair":"bad","place_id":"ChIJ9UevaGsayUwRi6q-l88Jg6o"},{"addr:housenumber":1407,"addr:street":"Rue Saint-Marc","wheelchair":"bad","place_id":"ChIJDaBEeGwayUwRDzPgVUtVyyk"},{"addr:housenumber":620,"addr:street":"Boulevard Lebourgneuf","wheelchair":"yes","place_id":"ChIJ5x17Ed6XuEwRybSxw4LjchM"},{"addr:housenumber":799,"addr:street":"Avenue du Mont-Royal Est","wheelchair":"yes","place_id":"ChIJvwlKZtAbyUwRQCF0laWGPV4"},{"addr:housenumber":477,"addr:street":"Boulevard Saint-Laurent","wheelchair":"no","place_id":"ChIJvyjSIVcayUwRRBD2PQd-zOU"},{"addr:housenumber":2125,"addr:street":"Rue Saint-Marc","wheelchair":"bad","place_id":"ChIJ9UevaGsayUwRi6q-l88Jg6o"},{"addr:housenumber":1445,"addr:street":"rue Roberval","wheelchair":"yes","place_id":"ChIJg1wqkjYByUwRgviZ0itgAmA"},{"addr:housenumber":1234,"addr:street":"Avenue du Mont-Royal Est","wheelchair":"limited","place_id":"ChIJrRJ8J9sbyUwRteKMpARdhZ4"},{"addr:housenumber":1050,"addr:street":"Rue Clark","wheelchair":"no","place_id":"ChIJQ0uosFEayUwRlMAvsG-7PSw"},{"addr:housenumber":461,"addr:street":"Rue Saint-Sulpice","wheelchair":"no","place_id":"ChIJsy_HQ1cayUwRRrxKxJDH-sM"},{"addr:housenumber":5190,"addr:street":"Boulevard Saint-Laurent","wheelchair":"yes","place_id":"ChIJ-dItDn4ZyUwRD3w3sSRG7NI"},{"addr:housenumber":5201,"addr:street":"Avenue du Parc","wheelchair":"yes","place_id":"ChIJn9J9kH8ZyUwRzDtoNpHwRVc"},{"addr:housenumber":1692,"addr:street":"Avenue du Mont-Royal Est","wheelchair":"yes","place_id":"ChIJX8eXMsMbyUwRx7tDfrK1uDY"},{"addr:housenumber":1101,"addr:street":"Mont-Royal","wheelchair":"yes","place_id":"ChIJPdBW6tobyUwR3SMe237rgbI"},{"addr:housenumber":233,"addr:street":"Avenue Des Pins Est","wheelchair":"limited","place_id":"ChIJA4Co3sobyUwRyD-VCJuB2bQ"},{"addr:housenumber":74,"addr:street":"Avenue Fairmount Ouest","wheelchair":"no","place_id":"ChIJ8QbEPn4ZyUwRJQSkiOAZrrY"},{"addr:housenumber":1205,"addr:street":"Rue Saint-Antoine Ouest","wheelchair":"yes","place_id":"ChIJMbTQ9WcayUwRvXF9kOghh5s"},{"addr:housenumber":600,"addr:street":"Boulevard De Maisonneuve Ouest","wheelchair":"yes","place_id":"ChIJsUaE2EUayUwRtT9eSpZbaKk"},{"addr:housenumber":237,"addr:street":"Avenue de Mont-Royal","wheelchair":"limited","place_id":"ChIJwanyuCwayUwRCdd2owLWgik"},{"addr:housenumber":6414,"addr:street":"Rue Saint-Denis","wheelchair":"yes","place_id":"ChIJyRKr_G4ZyUwR5VxMXtaaW_8"},{"addr:housenumber":4653,"addr:street":"Saint-Laurent","wheelchair":"yes","place_id":"ChIJAc5ue9QbyUwRCif5FHtrizg"},{"addr:housenumber":2115,"addr:street":"Rue Saint-Denis","wheelchair":"yes","place_id":"ChIJpybU47QbyUwRQVkgs0Abj0c"},{"addr:housenumber":"","addr:street":"Rue Mackay","wheelchair":"no","place_id":"ChIJcSFUJGoayUwRZAysCpZUzH8"},{"addr:housenumber":666,"addr:street":"Rue Sherbrooke Ouest","wheelchair":"limited","place_id":"ChIJxzDURUYayUwRcwqGm0gjg-s"},{"addr:housenumber":2140,"addr:street":"Avenue du Mont-Royal Est","wheelchair":"limited","place_id":"ChIJL0VvHugbyUwR37nFEFo4KZs"},{"addr:housenumber":20,"addr:street":"Rue Roy Est","wheelchair":"no","place_id":"ChIJ-WRWwzQayUwRTnm3UtqqRfE"},{"addr:housenumber":5059,"addr:street":"Avenue du Parc","wheelchair":"yes","place_id":"ChIJHTyZVNUbyUwRT_nWkBdgFWE"},{"addr:housenumber":15,"addr:street":"Avenue du Mont-Royal Ouest","wheelchair":"yes","place_id":"ChIJ6-AyEtMbyUwRmsIx4VUTDAM"},{"addr:housenumber":3956,"addr:street":"Saint-Laurent","wheelchair":"no","place_id":"ChIJBTr7SDMayUwRMyyeZd6oD1o"},{"addr:housenumber":705,"addr:street":"Sainte-Caterine Ouest","wheelchair":"yes","place_id":"ChIJmZDiK0QayUwRJIwJtqGkm8k"},{"addr:housenumber":1501,"addr:street":"Avenue McGill College","wheelchair":"yes","place_id":"ChIJLerEEEQayUwRLo1EnqcQ_lQ"},{"addr:housenumber":4873,"addr:street":"Saint-Laurent","wheelchair":"no","place_id":"ChIJa_z2S9QbyUwRD2JlHPXvFYI"},{"addr:housenumber":175,"addr:street":"St. Viateur Est","wheelchair":"no","place_id":"ChIJ3WbAfXsZyUwRqPHAxsSIWfY"},{"addr:housenumber":433,"addr:street":"McGill","wheelchair":"yes","place_id":"ChIJfwhbPlkayUwRohJu78EFV34"},{"addr:housenumber":442,"addr:street":"Place Jacques-Cartier","wheelchair":"yes","place_id":"ChIJV_sjjlYayUwR2oCFyaJyzGI"},{"addr:housenumber":510,"addr:street":"Rue Gosford","wheelchair":"yes","place_id":"ChIJ-QM8GlQayUwRg_Tk8nFgCfk"},{"addr:housenumber":1711,"addr:street":"Rue Berri","wheelchair":"yes","place_id":"ChIJT0RAZbMbyUwR-203-U_7COs"},{"addr:housenumber":"","addr:street":"3773 Boulevard Saint-Laurent","wheelchair":"limited","place_id":"Eio3NzMgQm91bCBTdC1MYXVyZW50LCBNb250csOpYWwsIFFDLCBDYW5hZGEiGxIZChQKEglLaqcmURrJTBE_YOcVoqobwhCFBg"},{"addr:housenumber":1801,"addr:street":"Avenue McGill College","wheelchair":"yes","place_id":"ChIJa3h4n0YayUwRqSvYu2zPAKk"},{"addr:housenumber":4001,"addr:street":"Boulevard Saint-Laurent","wheelchair":"yes","place_id":"ChIJ_zEUSjMayUwRc6z1fBBiw0U"},{"addr:housenumber":3990,"addr:street":"Rue Saint-Urbain","wheelchair":"no","place_id":"ChIJAeFoEDMayUwRZDlQ7psIZkI"},{"addr:housenumber":381,"addr:street":"Avenue Laurier Ouest","wheelchair":"limited","place_id":"ChIJUdfRCIAZyUwRVYm4dAvnRrE"},{"addr:housenumber":105,"addr:street":"Rue Rachel Ouest","wheelchair":"yes","place_id":"ChIJF6z1vDIayUwRshGtTBb3AhQ"},{"addr:housenumber":10300,"addr:street":"Rue Lajeunesse","wheelchair":"yes","place_id":"ChIJ3XKpq74YyUwRTxpA2_HOapk"},{"addr:housenumber":1001,"addr:street":"Boulevard de Maisonneuve Est","wheelchair":"limited","place_id":"ChIJ20BBN7IbyUwRwwJVhkjcnn0"},{"addr:housenumber":1200,"addr:street":"Avenue Papineau","wheelchair":"yes","place_id":"ChIJWzsKdq8byUwRvyd-ZQ5HD7w"},{"addr:housenumber":713,"addr:street":"Avenue du Mont-Royal Est","wheelchair":"limited","place_id":"ChIJbx5oWtAbyUwRzlO_0e3jYjw"},{"addr:housenumber":29,"addr:street":"Avenue Laurier Ouest","wheelchair":"limited","place_id":"ChIJj5cCjtUbyUwRomClOmM3jig"},{"addr:housenumber":1440,"addr:street":"Rue Amherst","wheelchair":"limited","place_id":"ChIJt4YmE7IbyUwRIZ5giKJ4j5U"},{"addr:housenumber":1969,"addr:street":"Mont-royal est","wheelchair":"yes","place_id":"ChIJkWwQysIbyUwR5F4ypNxAf0Y"},{"addr:housenumber":59,"addr:street":"Rue Sainte-Catherine Est","wheelchair":"yes","place_id":"ChIJHcTd2k0ayUwRGmRwoXSYIbA"},{"addr:housenumber":1241,"addr:street":"Avenue McGill-College","wheelchair":"yes","place_id":"ChIJw0pDekQayUwRz5U2egqpooE"},{"addr:housenumber":2130,"addr:street":"Rue Mackay","wheelchair":"no","place_id":"ChIJrScMkWoayUwRI-SOEwvKwt0"},{"addr:housenumber":1694,"addr:street":"Rue Sainte-Catherine Est","wheelchair":"no","place_id":"ChIJLU9g7a8byUwRJn8xdoCNlWM"},{"addr:housenumber":1350,"addr:street":"Rue Sherbrooke Ouest","wheelchair":"yes","place_id":"ChIJI9ViOEAayUwR-pD7JA3_0eY"},{"addr:housenumber":1226,"addr:street":"Rue Sherbrooke Ouest","wheelchair":"yes","place_id":"Ei4xMjI2IFJ1ZSBTaGVyYnJvb2tlLCBNb250csOpYWwsIFFDIEgzRywgQ2FuYWRhIhsSGQoUChIJ6bKXWEAayUwR4c4WMr5zMxcQygk"},{"addr:housenumber":1390,"addr:street":"Rue Sainte-Catherine Est","wheelchair":"yes","place_id":"ChIJQ-cnMK4byUwRzAyD0_YZ738"},{"addr:housenumber":5111,"addr:street":"Chemin Queen-Mary","wheelchair":"limited","place_id":"ChIJY7Pt4lcXyUwRqEYrd9sXPfI"},{"addr:housenumber":1818,"addr:street":"Rue Gilford","wheelchair":"yes","place_id":"ChIJ1daupN0byUwRyiTzzSrDyic"},{"addr:housenumber":1405,"addr:street":"Avenue Papineau","wheelchair":"no","place_id":"EjAxNDA1IFJ1ZSBQYXBpbmVhdSwgTW9udHLDqWFsLCBRQyBIMksgNEgzLCBDYW5hZGEiGxIZChQKEgnVMleOrxvJTBESrvB3pIJjNxD9Cg"},{"addr:housenumber":4026,"addr:street":"Rue Wellington","wheelchair":"no","place_id":"ChIJN-8-QWQQyUwRsPbcpztphLg"},{"addr:housenumber":421,"addr:street":"Rue Saint-Roch","wheelchair":"yes","place_id":"ChIJ3_oxfA8ZyUwRB1XtzVmAeeg"},{"addr:housenumber":3498,"addr:street":"Avenue du Parc","wheelchair":"yes","place_id":"ChIJKzvSy0kayUwRFouGw9_gLvs"},{"addr:housenumber":1990,"addr:street":"Mont-royal est","wheelchair":"yes","place_id":"ChIJ283ft8IbyUwRa3qqyUKQWrM"},{"addr:housenumber":"","addr:street":"Boulevard Dollard","wheelchair":"yes","place_id":"ChIJKeMRfZwZyUwRn4ej0PsVxKQ"},{"addr:housenumber":1488,"addr:street":"Rue Sainte-Catherine Est","wheelchair":"no","place_id":"EjoxNDg4IFJ1ZSBTYWludGUtQ2F0aGVyaW5lIEUsIE1vbnRyw6lhbCwgUUMgSDJMIDJKMSwgQ2FuYWRhIhsSGQoUChIJd6t0zq8byUwRPwNc-Djvjo8Q0As"},{"addr:housenumber":6731,"addr:street":"Avenue de L'Esplanade","wheelchair":"yes","place_id":"ChIJIaVj13IZyUwR4DGGSVZq7wM"},{"addr:housenumber":150,"addr:street":"Rue Sainte-Catherine Ouest","wheelchair":"yes","place_id":"ChIJWQFarU8ayUwR_U0POHFUEbg"},{"addr:housenumber":1309,"addr:street":"Rue Laurier Est","wheelchair":"no","place_id":"ChIJI1Gn2d4byUwRGOouP9A_YFE"},{"addr:housenumber":1806,"addr:street":"Rue William","wheelchair":"yes","place_id":"ChIJSUZqQmMayUwRm9_IdYvYWGk"},{"addr:housenumber":1555,"addr:street":"Avenue Van Horne","wheelchair":"yes","place_id":"ChIJSZPRrp4ZyUwReeesKPoOrW0"},{"addr:housenumber":1019,"addr:street":"Boulevard Saint-Laurent","wheelchair":"no","place_id":"ChIJ14pqolEayUwRT-5uq5APyBY"},{"addr:housenumber":1251,"addr:street":"Rue Robin","wheelchair":"no","place_id":"ChIJVVuaE7EbyUwRYwc6umGs2II"},{"addr:housenumber":1593,"addr:street":"Rue Saint Denis","wheelchair":"yes","place_id":"ChIJyTGfLbMbyUwReltv9xw-SU8"},{"addr:housenumber":414,"addr:street":"Avenue du Mont-Royal Est","wheelchair":"yes","place_id":"ChIJdQ3qpdEbyUwRo4e91_OphXc"},{"addr:housenumber":600,"addr:street":"rue Cathcart","wheelchair":"yes","place_id":"ChIJV26TAUUayUwRvu6IrHKUE1Y"},{"addr:housenumber":200,"addr:street":"Boulevard Rene-Levesque Ouest","wheelchair":"yes","place_id":"ChIJv7fjJFAayUwRFCpFBuYQzlc"},{"addr:housenumber":8550,"addr:street":"Boulevard Langelier","wheelchair":"yes","place_id":"ChIJkXjKJlgeyUwR7v7TQT5_8Ak"},{"addr:housenumber":"","addr:street":"Boulevard Henri-Bourassa Est","wheelchair":"yes","place_id":"ChIJd-qr604eyUwRcwAysuClpHs"},{"addr:housenumber":3315,"addr:street":"Avenue De Granby","wheelchair":"yes","place_id":"ChIJ9Z_b_TAcyUwRfZ2TaJcGP6Y"},{"addr:housenumber":2275,"addr:street":"Avenue du Mont-Royal Est","wheelchair":"yes","place_id":"ChIJZ30OZOgbyUwRvQFvHsawMT4"},{"addr:housenumber":5501,"addr:street":"chemin De La Cote-Des-Neiges","wheelchair":"yes","place_id":"ChIJg74FTO4ZyUwR7NJKWyXDTmI"},{"addr:housenumber":4854,"addr:street":"rue Sherbrooke Ouest","wheelchair":"yes","place_id":"ChIJiacfWaYQyUwRKYUwRUbXdm0"},{"addr:housenumber":1254,"addr:street":"Avenue Beaumont","wheelchair":"yes","place_id":"ChIJS1N5tqEZyUwRwEBjgR7XTFw"},{"addr:housenumber":2495,"addr:street":"Boulevard Saint-Martin Est","wheelchair":"yes","place_id":"ChIJyzZkFrghyUwR2VvOAs7QljY"},{"addr:housenumber":1389,"addr:street":"Avenue du Mont-Royal Est","wheelchair":"yes","place_id":"ChIJh4SVWtsbyUwR1XjxpprBrwM"},{"addr:housenumber":1037,"addr:street":"Avenue du Mont-Royal Est","wheelchair":"yes","place_id":"ChIJ4xchlNobyUwR1qQpekDcfWU"},{"addr:housenumber":1337,"addr:street":"Avenue du Mont-Royal Est","wheelchair":"limited","place_id":"ChIJc9gMR9sbyUwRDEiOrPv2G_Y"},{"addr:housenumber":1391,"addr:street":"Avenue du Mont-Royal Est","wheelchair":"limited","place_id":"ChIJ0xKLWtsbyUwRHkUZA9h9OKE"},{"addr:housenumber":1387,"addr:street":"Avenue du Mont-Royal Est","wheelchair":"limited","place_id":"ChIJvZm3WtsbyUwRWS4cc4oQk9k"},{"addr:housenumber":690,"addr:street":"Rue Sainte-Catherine Ouest","wheelchair":"yes","place_id":"ChIJNzbuQ0QayUwRGFd7UdL83pk"},{"addr:housenumber":4506,"addr:street":"Rue Saint-Denis","wheelchair":"yes","place_id":"ChIJq4K-CtEbyUwRICwo-GqOQEA"},{"addr:housenumber":408,"addr:street":"Avenue du Mont-Royal Est","wheelchair":"yes","place_id":"ChIJ8RdGpNEbyUwRCW14tMGLy20"},{"addr:housenumber":161,"addr:street":"Rue Saint-Paul Est","wheelchair":"no","place_id":"ChIJL56zX1YayUwR2COfGtdsbxU"},{"addr:housenumber":1500,"addr:street":"Rue Sainte-Catherine Ouest","wheelchair":"limited","place_id":"EjoxNTAwIFJ1ZSBTYWludGUtQ2F0aGVyaW5lIE8sIE1vbnRyw6lhbCwgUUMgSDNHIDFTOCwgQ2FuYWRhIhsSGQoUChIJ-UPqMmoayUwRkxKE1CMtU1MQ3As"},{"addr:housenumber":2173,"addr:street":"Rue Sainte-Catherine Ouest","wheelchair":"yes","place_id":"ChIJObycD20ayUwRC7ZYNrjTqc8"},{"addr:housenumber":8200,"addr:street":"Boulevard Taschereau","wheelchair":"limited","place_id":"ChIJlYnsNHEPyUwRp0YO4MaZkWE"},{"addr:housenumber":705,"addr:street":"Rue Sainte-Catherine Ouest","wheelchair":"yes","place_id":"ChIJmZDiK0QayUwRJIwJtqGkm8k"},{"addr:housenumber":1500,"addr:street":"Rue Atwater","wheelchair":"yes","place_id":"ChIJ0SZJXG0ayUwRJKif_0GP87Q"},{"addr:housenumber":1749,"addr:street":"Rue Saint-Denis","wheelchair":"yes","place_id":"ChIJccJsp7QbyUwRm-3nczzm-O0"},{"addr:housenumber":25,"addr:street":"Avenue Fairmount Ouest","wheelchair":"yes","place_id":"ChIJN8_zE34ZyUwR14yPdvJyCIo"},{"addr:housenumber":1450,"addr:street":"Rue Guy","wheelchair":"yes","place_id":"ChIJgSlJUmoayUwR--CfmxFvtcM"},{"addr:housenumber":1100,"addr:street":"Rue Wellington","wheelchair":"yes","place_id":"ChIJ52Vem4oayUwRMpBiaZx9K5Y"},{"addr:housenumber":4601,"addr:street":"Rue Verdun","wheelchair":"limited","place_id":"ChIJ3yPBrWAQyUwR6gOPBRpLUGk"},{"addr:housenumber":1602,"addr:street":"Rue Sainte-Catherine Ouest","wheelchair":"limited","place_id":"ChIJyddrzmsayUwRGYF3weFL19U"},{"addr:housenumber":1711,"addr:street":"Rue Thierry","wheelchair":"no","place_id":"ChIJy9ljrjwRyUwRvFAqamRydII"},{"addr:housenumber":1111,"addr:street":"Rue Sainte-Catherine Est","wheelchair":"yes","place_id":"ChIJ-T3rC7IbyUwRv4FLEVtUOv8"},{"addr:housenumber":275,"addr:street":"Avenue Fairmount Ouest","wheelchair":"yes","place_id":"ChIJTzWnl38ZyUwRNEe-W7DRayw"},{"addr:housenumber":1610,"addr:street":"Rue Sainte-Catherine Ouest","wheelchair":"no","place_id":"ChIJv6MzwWsayUwRjjwBuqMvag4"},{"addr:housenumber":1410,"addr:street":"Rue Guy","wheelchair":"no","place_id":"ChIJhRaZymsayUwRuhlYx-hXCOU"},{"addr:housenumber":90,"addr:street":"Rue Peel","wheelchair":"yes","place_id":"ChIJ_7ckkYoayUwRiKfmQW9jhWM"},{"addr:housenumber":6631,"addr:street":"Avenue Papineau","wheelchair":"limited","place_id":"ChIJn9xjeEQZyUwR__YVwllH1dw"},{"addr:housenumber":4301,"addr:street":"Rue Ontario Est","wheelchair":"no","place_id":"ChIJt_jS-HYcyUwRE22tmpZ5Jnc"},{"addr:housenumber":1911,"addr:street":"Boulevard Keller","wheelchair":"limited","place_id":"ChIJqzDTgZAiyUwRZE-83wRrYUk"},{"addr:housenumber":2435,"addr:street":"Rockland Road","wheelchair":"yes","place_id":"ChIJKzeLZP8YyUwR09dubcuPEWc"},{"addr:housenumber":1,"addr:street":"Place Ville-Marie","wheelchair":"yes","place_id":"ChIJ2_P4mEQayUwR02Gdd0oLdqI"},{"addr:housenumber":"","addr:street":"Boulevard de l'Avenir","wheelchair":"yes","place_id":"ChIJH_xQtjYiyUwRTNe0iCvYNBM"},{"addr:housenumber":927,"addr:street":"Rachel Est","wheelchair":"yes","place_id":"ChIJxclLCc8byUwRK9p714mOKF8"},{"addr:housenumber":358,"addr:street":"Avenue Fairmount Ouest","wheelchair":"yes","place_id":"ChIJlyBviX8ZyUwRnn4WXBLgFtc"},{"addr:housenumber":6484,"addr:street":"Avenue de Monkland","wheelchair":"yes","place_id":"ChIJ0WlbojUXyUwRx-fe3S24MGQ"},{"addr:housenumber":7681,"addr:street":"Boulevard Taschereau","wheelchair":"limited","place_id":"ChIJLeEW7XsPyUwR8s2nf10talY"},{"addr:housenumber":4299,"addr:street":"Rue Ontario Est","wheelchair":"no","place_id":"ChIJfU8OVnYcyUwRLq5aDYdreJw"},{"addr:housenumber":2033,"addr:street":"Rue Saint-Laurent","wheelchair":"no","place_id":"ChIJHYpb80sayUwRSDOZFZ6q2qY"},{"addr:housenumber":2035,"addr:street":"Rue Saint-Laurent","wheelchair":"no","place_id":"ChIJHYpb80sayUwRkCp5fz-hmb0"},{"addr:housenumber":4581,"addr:street":"Avenue du Parc","wheelchair":"no","place_id":"ChIJRZK4YCsayUwRzcOaihCUva8"},{"addr:housenumber":1449,"addr:street":"Rue Sainte-Catherine Ouest","wheelchair":"no","place_id":"ChIJh5E2I2oayUwRDciU7gU3XWQ"},{"addr:housenumber":1601,"addr:street":"Rue Sainte-Catheine","wheelchair":"no","place_id":"ChIJ7WmrzmsayUwRMjYEc8xplII"},{"addr:housenumber":55,"addr:street":"Avenue Van Horne","wheelchair":"limited","place_id":"Ei41NSBBdmVudWUgVmFuIEhvcm5lLCBNb250csOpYWwsIFFDIEgyVCwgQ2FuYWRhIhoSGAoUChIJ9-0ihHAZyUwRxcwA1yJwMkoQNw"},{"addr:housenumber":305,"addr:street":"Rue Christin","wheelchair":"yes","place_id":"ChIJJRb1ZE0ayUwR-A5zAe0l8Lo"},{"addr:housenumber":760,"addr:street":"Rue Beaubien Est","wheelchair":"limited","place_id":"ChIJy-lyKWkZyUwRz-jaWGPKvZM"},{"addr:housenumber":5242,"addr:street":"Avenue du Parc","wheelchair":"yes","place_id":"ChIJ12yZgn8ZyUwR61k3zn54mTs"},{"addr:housenumber":996,"addr:street":"Rue Jean-Talon Ouest","wheelchair":"no","place_id":"ChIJR1iwEAoZyUwRiQ13kXFJJ_M"},{"addr:housenumber":6930,"addr:street":"Rue Saint-Hubert","wheelchair":"yes","place_id":"ChIJKZUR3GoZyUwR2F6YE5hGQ_w"},{"addr:housenumber":1455,"addr:street":"Rue Sainte-Catherine Ouest","wheelchair":"no","place_id":"ChIJ79GnPGoayUwRIGU0_j4UCgs"},{"addr:housenumber":930,"addr:street":"Rue Sainte-Catherine Ouest","wheelchair":"no","place_id":"ChIJv6My9UMayUwRZ8M-KejwNyM"},{"addr:housenumber":1616,"addr:street":"Rue Sainte-Catherine Ouest","wheelchair":"limited","place_id":"ChIJa5SH6msayUwRQiqmo21wiRE"},{"addr:housenumber":1862,"addr:street":"Rue Sainte-Catherine Ouest","wheelchair":"no","place_id":"ChIJpxUndGwayUwRuZNle5kwSPI"},{"addr:housenumber":1500,"addr:street":"Avenue Atwater","wheelchair":"limited","place_id":"ChIJ0SZJXG0ayUwRJKif_0GP87Q"},{"addr:housenumber":5248,"addr:street":"Chemin Queen Mary","wheelchair":"no","place_id":"ChIJcTIUllcXyUwRBxmGwpQ5yvs"},{"addr:housenumber":2020,"addr:street":"Rue Drummond","wheelchair":"yes","place_id":"ChIJBxYkpkEayUwRFOLr1Dlx2lw"},{"addr:housenumber":6473,"addr:street":"Rue Sherbrooke Est","wheelchair":"yes","place_id":"ChIJT4wlSDAcyUwRhHOwefuAyRg"},{"addr:housenumber":8245,"addr:street":"Boulevard Taschereau","wheelchair":"limited","place_id":"ChIJM09UYXEPyUwRrczD-TkqTd4"},{"addr:housenumber":8265,"addr:street":"Boulevard Taschereau","wheelchair":"yes","place_id":"ChIJg0hso3MPyUwRoiN22dD-5G0"},{"addr:housenumber":1273,"addr:street":"Rue Sainte-Catherine Est","wheelchair":"yes","place_id":"ChIJvZoUHa4byUwR7KzMXCwIpuw"},{"addr:housenumber":1453,"addr:street":"Rue Sainte-Catherine Est","wheelchair":"no","place_id":"ChIJQcA6La4byUwRNNL3ukVSjpk"},{"addr:housenumber":1334,"addr:street":"Rue Sainte-Catherine Est","wheelchair":"no","place_id":"ChIJWcyfIq4byUwRSgAJcmtBv0M"},{"addr:housenumber":1320,"addr:street":"Rue Sainte-Catherine Est","wheelchair":"yes","place_id":"ChIJn974GK4byUwR74fC8ye4abs"},{"addr:housenumber":1335,"addr:street":"Rue Sainte-Catherine Est","wheelchair":"no","place_id":"ChIJxT79I64byUwRAwo220Z63Zs"},{"addr:housenumber":1401,"addr:street":"Rue Mackay","wheelchair":"no","place_id":"ChIJYblkPGoayUwR_NTXPl14kV8"},{"addr:housenumber":8100,"addr:street":"Saint-Denis","wheelchair":"yes","place_id":"ChIJWXq1NR8ZyUwREsbPy0gdLtg"},{"addr:housenumber":1477,"addr:street":"Rue Sainte-Catherine Est","wheelchair":"yes","place_id":"ChIJQ3QS0q8byUwRIUoPmhHcxhI"},{"addr:housenumber":1999,"addr:street":"Boulevard Marcel-Laurin","wheelchair":"yes","place_id":"ChIJ_9HhqXUYyUwRAPo-Fmg_ZO8"},{"addr:housenumber":1455,"addr:street":"Boulevard De Maisonneuve Ouest","wheelchair":"yes","place_id":"ChIJaX1tY2oayUwRx9YEeFhP2ns"},{"addr:housenumber":1625,"addr:street":"Avenue de l'Eglise","wheelchair":"yes","place_id":"ChIJO3bxG9UEyUwRMMoj0vc0VY4"},{"addr:housenumber":1695,"addr:street":"Rue Sainte-Catherine Est","wheelchair":"yes","place_id":"ChIJ9S4v8q8byUwRKfNJqYKe94E"},{"addr:housenumber":120,"addr:street":"Rue Peel","wheelchair":"yes","place_id":"ChIJk15_mYoayUwREq2sq21QexQ"},{"addr:housenumber":316,"addr:street":"Mont-Royal E","wheelchair":"yes","place_id":"ChIJF0PjgtEbyUwRccpqKcDpRqE"},{"addr:housenumber":1432,"addr:street":"Rue Sainte-Catherine Ouest","wheelchair":"yes","place_id":"ChIJ67LoIWoayUwRsJ6JZbcezek"},{"addr:housenumber":251,"addr:street":"Avenue du Mont-Royal Est","wheelchair":"yes","place_id":"ChIJ3_w71NMbyUwRRO81ewEdecg"},{"addr:housenumber":6415,"addr:street":"Boulevard Monk","wheelchair":"yes","place_id":"ChIJuamFLu4QyUwR0h6SoXduNSs"},{"addr:housenumber":"","addr:street":"Rue Wellington","wheelchair":"yes","place_id":"ChIJkbbJs3gQyUwRQ4sqOrEKr0g"},{"addr:housenumber":1618,"addr:street":"Avenue Lincoln","wheelchair":"no","place_id":"ChIJtdpf-2oayUwRdQbX8HPEn98"},{"addr:housenumber":1623,"addr:street":"Rue Sherbrooke Ouest","wheelchair":"no","place_id":"EjIxNjIzIFJ1ZSBTaGVyYnJvb2tlLCBNb250csOpYWwsIFFDIEgzSCAxRTIsIENhbmFkYSIbEhkKFAoSCbE2v9BqGslMETQO9spHFmnBENcM"},{"addr:housenumber":933,"addr:street":"Rue Sainte-Catherine Est","wheelchair":"no","place_id":"EjU5MzMgUnVlIFNhaW50ZS1DYXRoZXJpbmUgRSwgTW9udHLDqWFsLCBRQyBIMkwsIENhbmFkYSIbEhkKFAoSCaH3p36yG8lMETPeBBYHUgkkEKUH"},{"addr:housenumber":6021,"addr:street":"Rue Saint-Hubert","wheelchair":"no","place_id":"ChIJRWGk4mUZyUwR9UaTzeW2kIU"},{"addr:housenumber":5851,"addr:street":"Rue Saint-Hubert","wheelchair":"no","place_id":"ChIJK5ucLWQZyUwR1rMPBLDYEJg"},{"addr:housenumber":5900,"addr:street":"Rue Sherbrooke Est","wheelchair":"yes","place_id":"ChIJucqibzscyUwRMr9D5g5GiiY"},{"addr:housenumber":2250,"addr:street":"Guy","wheelchair":"yes","place_id":"ChIJk44C5moayUwRGIGPF8OKzTE"},{"addr:housenumber":1448,"addr:street":"Rue Sherbrooke Ouest","wheelchair":"no","place_id":"ChIJC_uwoWoayUwRLwbNu2ImBTg"},{"addr:housenumber":1676,"addr:street":"Avenue Lincoln","wheelchair":"no","place_id":"ChIJhdg9G2sayUwRqWlJ4JAMQmY"},{"addr:housenumber":2015,"addr:street":"Boulevard Marcel-Laurin","wheelchair":"limited","place_id":"ChIJc_m1u3UYyUwRlqFAR-KPoQ0"},{"addr:housenumber":2065,"addr:street":"Boulevard Marcel-Laurin","wheelchair":"yes","place_id":"ChIJoxoSvnUYyUwReaeS1oY8GmM"},{"addr:housenumber":480,"addr:street":"Boulevard Saint-Laurent","wheelchair":"no","place_id":"ChIJYSmhI1cayUwRsAWTdR48n5k"},{"addr:housenumber":433,"addr:street":"Boulevard Chabanel Ouest","wheelchair":"yes","place_id":"ChIJk7yaNu4YyUwR2AnlNLMa7g8"},{"addr:housenumber":2100,"addr:street":"Boulevard Robert-Bourassa","wheelchair":"no","place_id":"ChIJL5kgZ0YayUwR3XYTcFwrGDU"},{"addr:housenumber":5518,"addr:street":"Avenue de Monkland","wheelchair":"yes","place_id":"ChIJW_QHyVIXyUwR3W-i_ZdPuRw"},{"addr:housenumber":1264,"addr:street":"Rue Sherbrooke Est","wheelchair":"yes","place_id":"ChIJM9K_uLcbyUwRhbV19EtpZYA"},{"addr:housenumber":618,"addr:street":"Jarry Est","wheelchair":"limited","place_id":"ChIJqygSHCIZyUwReEBHrC8hOfY"},{"addr:housenumber":469,"addr:street":"Rue Milton","wheelchair":"no","place_id":"ChIJjc07GEgayUwRSV7Mwobe2V4"},{"addr:housenumber":1611,"addr:street":"Rue Sainte-Catherine","wheelchair":"yes","place_id":"ChIJzZ8UyWsayUwRMR_tZEhLZlw"},{"addr:housenumber":1579,"addr:street":"Rue Saint-Denis","wheelchair":"no","place_id":"ChIJRTvsLLMbyUwRI2GLSD9JdFs"},{"addr:housenumber":1581,"addr:street":"Rue Saint Denis","wheelchair":"no","place_id":"ChIJrejjLLMbyUwR5K143OkN180"},{"addr:housenumber":1595,"addr:street":"Rue Saint Denis","wheelchair":"no","place_id":"ChIJmbB5LbMbyUwR-KP18UuORNw"},{"addr:housenumber":2600,"addr:street":"Ontario E.","wheelchair":"yes","place_id":"ChIJqwfUS5YbyUwRfKPOmZMV1Ds"},{"addr:housenumber":2002,"addr:street":"Mackay","wheelchair":"no","place_id":"ChIJB1bTovfT22sRAAQhf_HuAAU"},{"addr:housenumber":8245,"addr:street":"Boulevard Taschereau","wheelchair":"limited","place_id":"ChIJM09UYXEPyUwRrczD-TkqTd4"},{"addr:housenumber":1632,"addr:street":"Boulevard de Maisonneuve","wheelchair":"no","place_id":"ChIJs7QFrGsayUwRnjESGlF_aS0"},{"addr:housenumber":1450,"addr:street":"Rue Guy","wheelchair":"yes","place_id":"ChIJgSlJUmoayUwR--CfmxFvtcM"},{"addr:housenumber":4050,"addr:street":"Avenue du Parc-La Fontaine","wheelchair":"no","place_id":"ChIJv5Why8gbyUwRpUUqxAxjPM4"},{"addr:housenumber":4299,"addr:street":"Boulevard Saint-Laurent","wheelchair":"no","place_id":"ChIJxbPwodIbyUwR_oP4isyJKmA"},{"addr:housenumber":2055,"addr:street":"Rue Bishop","wheelchair":"no","place_id":"ChIJHwr6f2oayUwRSWk4WGlDjE8"},{"addr:housenumber":"","addr:street":"Rue Sainte-Catherine Est","wheelchair":"no","place_id":"ChIJO7XexpkbyUwReyppqaNQNys"},{"addr:housenumber":1389,"addr:street":"Rue Sainte-Catherine Est","wheelchair":"no","place_id":"ChIJ9X6CLq4byUwRwy0v8Ad0LzM"},{"addr:housenumber":1356,"addr:street":"Rue Sainte-Catherine Est","wheelchair":"no","place_id":"ChIJpzcmJa4byUwRUj5p7dpO_rk"},{"addr:housenumber":1333,"addr:street":"Rue Sainte-Catherine Est","wheelchair":"limited","place_id":"ChIJDYLZI64byUwRiPHKGC_ciRc"},{"addr:housenumber":1327,"addr:street":"Rue Sainte-Catherine Est","wheelchair":"limited","place_id":"ChIJtTmZIa4byUwRZ7AkKnGVZxw"},{"addr:housenumber":1290,"addr:street":"Rue Sherbrooke Ouest","wheelchair":"yes","place_id":"ChIJ3eA_WkAayUwRMhAUHclmL8M"},{"addr:housenumber":245,"addr:street":"Rue Sherbrooke Ouest","wheelchair":"yes","place_id":"ChIJF0lgDkkayUwR6MuvXRydgi0"},{"addr:housenumber":5,"addr:street":"Place Ville Marie","wheelchair":"yes","place_id":"ChIJoZkGZkMayUwRwb68tWIPi4I"},{"addr:housenumber":10,"addr:street":"Avenue des Pins Ouest","wheelchair":"no","place_id":"ChIJmRJRHTUayUwRuYKVoeZ9n7M"},{"addr:housenumber":1675,"addr:street":"Boulevard De Maisonneuve Ouest","wheelchair":"no","place_id":"ChIJz8NZCGsayUwRM70GyoV1I54"},{"addr:housenumber":2140,"addr:street":"Rue Saint-Mathieu","wheelchair":"no","place_id":"ChIJnet7EWsayUwR4u3A15FY2LE"},{"addr:housenumber":1420,"addr:street":"Sherbrooke West","wheelchair":"yes","place_id":"ChIJV_jZIUAayUwRoDDGIQnZJus"},{"addr:housenumber":262,"addr:street":"Mont Royal Est","wheelchair":"no","place_id":"ChIJzyJX1dMbyUwRBLk2DFMm7z4"},{"addr:housenumber":275,"addr:street":"Rue Notre-Dame Est","wheelchair":"no","place_id":"ChIJK8ZhHFQayUwRAUdYWLox_v0"},{"addr:housenumber":2150,"addr:street":"Bishop","wheelchair":"no","place_id":"ChIJC_JDnWoayUwRjavnG6oPjeo"},{"addr:housenumber":"","addr:street":"Avenue Dollard","wheelchair":"yes","place_id":"ChIJZ8S1yDkRyUwRh4_JfGmSic0"},{"addr:housenumber":"","addr:street":"Rue Sainte-Catherine Est","wheelchair":"yes","place_id":"ChIJO7XexpkbyUwReyppqaNQNys"},{"addr:housenumber":1329,"addr:street":"Rue Sainte-Catherine Est","wheelchair":"limited","place_id":"ChIJe4h3Ia4byUwRxpx107Jt9xE"},{"addr:housenumber":"","addr:street":"Rue Sainte-Catherine Est","wheelchair":"limited","place_id":"ChIJO7XexpkbyUwReyppqaNQNys"},{"addr:housenumber":1651,"addr:street":"Rue Sainte_Catherine Ouest","wheelchair":"yes","place_id":"ChIJf7ixwGsayUwR9u5uVinq7z0"},{"addr:housenumber":1434,"addr:street":"Crescent Street","wheelchair":"no","place_id":"ChIJu3JxCmoayUwRpbd288t1M3s"},{"addr:housenumber":1500,"addr:street":"Rue Sainte-Catherine Ouest","wheelchair":"yes","place_id":"EjoxNTAwIFJ1ZSBTYWludGUtQ2F0aGVyaW5lIE8sIE1vbnRyw6lhbCwgUUMgSDNHIDFTOCwgQ2FuYWRhIhsSGQoUChIJ-UPqMmoayUwRkxKE1CMtU1MQ3As"},{"addr:housenumber":1515,"addr:street":"Rue Sainte-Catherine Ouest","wheelchair":"yes","place_id":"ChIJL3vPM2oayUwRQu3_ytQI6sc"},{"addr:housenumber":1432,"addr:street":"Rue Mackay","wheelchair":"yes","place_id":"ChIJy9yRQWoayUwRjTqRcIrCUkw"},{"addr:housenumber":"","addr:street":"3969 Wellington","wheelchair":"limited","place_id":"ChIJJYBorzgEzkwRJxaLs6lQewE"},{"addr:housenumber":1455,"addr:street":"Boulevard de Maisonneuve Ouest","wheelchair":"yes","place_id":"ChIJaX1tY2oayUwRx9YEeFhP2ns"},{"addr:housenumber":"1021A","addr:street":"Boulevard Saint-Laurent","wheelchair":"no","place_id":"ChIJqR1folEayUwR33v8F1R8AbQ"},{"addr:housenumber":1013,"addr:street":"Boulevard Saint-Laurent","wheelchair":"no","place_id":"ChIJ5TgqolEayUwR8_lgggYt40M"},{"addr:housenumber":1055,"addr:street":"Boulevard Saint-Laurent","wheelchair":"no","place_id":"ChIJ6dc7llEayUwRQ-YPdYiedF4"},{"addr:housenumber":1053,"addr:street":"Boulevard Saint-Laurent","wheelchair":"no","place_id":"ChIJAQBcllEayUwR1vrT9_naMiE"},{"addr:housenumber":1027,"addr:street":"Boulevard Saint-Laurent","wheelchair":"no","place_id":"ChIJDZV_olEayUwR0UQWXfLLs_8"},{"addr:housenumber":3506,"addr:street":"Avenue du Parc","wheelchair":"yes","place_id":"ChIJg8hCzkkayUwRZLeHohQsX5o"},{"addr:housenumber":2080,"addr:street":"Rue Saint-Mathieu","wheelchair":"no","place_id":"ChIJCTEIEmsayUwRGa6LYUqMxqQ"},{"addr:housenumber":2128,"addr:street":"Rue Saint-Mathieu","wheelchair":"no","place_id":"ChIJg56VEWsayUwRUpOj81fnijI"},{"addr:housenumber":440,"addr:street":"Boulevard de Maisonneuve Ouest","wheelchair":"yes","place_id":"ChIJ1eg4-UUayUwRHNYjwx9XDc0"},{"addr:housenumber":97,"addr:street":"Rue de la Commune Est","wheelchair":"no","place_id":"ChIJoXsSUVYayUwRhheEv-zSi0s"},{"addr:housenumber":1231,"addr:street":"Avenue Lajoie","wheelchair":"no","place_id":"ChIJ7epUbp0ZyUwRJtheXhEQpRo"},{"addr:housenumber":1225,"addr:street":"Avenue Lajoie","wheelchair":"no","place_id":"ChIJoyYPb50ZyUwRpnMkfjK9E58"},{"addr:housenumber":8245,"addr:street":"Boulevard Taschereau","wheelchair":"yes","place_id":"ChIJM09UYXEPyUwRrczD-TkqTd4"},{"addr:housenumber":4821,"addr:street":"Rue Sainte-Catherine Est","wheelchair":"yes","place_id":"ChIJz9S__3ocyUwRrIJfUuJRBYk"},{"addr:housenumber":201,"addr:street":"Avenue Fairmount Ouest","wheelchair":"no","place_id":"ChIJyZROun8ZyUwRItKhbyQWl9o"},{"addr:housenumber":4060,"addr:street":"Rue Ontario Est","wheelchair":"yes","place_id":"ChIJSbmX1IkbyUwRNXe2oofMm4M"},{"addr:housenumber":850,"addr:street":"Avenue du Mont-Royal Est","wheelchair":"yes","place_id":"ChIJ91-5btAbyUwRgV4G10ENsYc"},{"addr:housenumber":4910,"addr:street":"Boulevard Saint-Laurent","wheelchair":"yes","place_id":"ChIJ85fts9UbyUwRjLNkGn5c1P0"},{"addr:housenumber":13926,"addr:street":"Rue Notre-Dame Est","wheelchair":"yes","place_id":"ChIJwWFBN87jyEwRcoErDoN0ERk"},{"addr:housenumber":4800,"addr:street":"Rue Wellington","wheelchair":"limited","place_id":"ChIJgYeEYF0QyUwRb5A1RbC-KGI"},{"addr:housenumber":1302,"addr:street":"Rue Sainte-Catherine Est","wheelchair":"yes","place_id":"ChIJeznHG64byUwROEi2oxzvZxQ"},{"addr:housenumber":4479,"addr:street":"Rue Sainte-Catherine Est","wheelchair":"yes","place_id":"ChIJi8bJoXkcyUwRgSEi3gfMUfU"},{"addr:housenumber":1316,"addr:street":"Rue Sainte-Catherine Est","wheelchair":"no","place_id":"ChIJ2x-YGa4byUwR0XVaPZtoD9Q"},{"addr:housenumber":1654,"addr:street":"Rue Sainte-Catherine Est","wheelchair":"yes","place_id":"ChIJS-gK668byUwRijU4_aiL14U"},{"addr:housenumber":8080,"addr:street":"Boulevard Taschereau","wheelchair":"limited","place_id":"ChIJ3Qh1MncPyUwR8kKmQrvXiDc"},{"addr:housenumber":2089,"addr:street":"Boulevard Marcel-Laurin","wheelchair":"yes","place_id":"ChIJgTvLv3UYyUwRqA1aLBLX20w"},{"addr:housenumber":1314,"addr:street":"Rue Sainte-Catherine Est","wheelchair":"no","place_id":"ChIJ61kEGa4byUwRcA2TS5TE-oo"},{"addr:housenumber":2099,"addr:street":"Boulevard Marcel-Laurin","wheelchair":"yes","place_id":"ChIJixwB7HUYyUwRbXLCjl9H1VY"},{"addr:housenumber":1595,"addr:street":"Avenue du Mont-Royal Est","wheelchair":"yes","place_id":"ChIJL5PpttwbyUwRi4YUkcLNZhY"},{"addr:housenumber":201,"addr:street":"Rue Saint-Jacques","wheelchair":"yes","place_id":"ChIJWcgLBFoayUwRgXoj2zoeAwM"},{"addr:housenumber":268,"addr:street":"Rue Saint Viateur O","wheelchair":"yes","place_id":"EjIyNjggUnVlIFNhaW50IFZpYXRldXIgTywgTW9udHLDqWFsLCBRQyBIMlYsIENhbmFkYSIbEhkKFAoSCQHXONt4GclMEY5qsyXwpmL0EIwC"},{"addr:housenumber":"","addr:street":"Rue Sainte-Catherine Est","wheelchair":"yes","place_id":"ChIJO7XexpkbyUwReyppqaNQNys"},{"addr:housenumber":1688,"addr:street":"Rue Sherbrooke Ouest","wheelchair":"no","place_id":"EjIxNjg4IFJ1ZSBTaGVyYnJvb2tlLCBNb250csOpYWwsIFFDIEgzSCAxRTIsIENhbmFkYSIbEhkKFAoSCc8IMyhrGslMEWc511OFx_8cEJgN"},{"addr:housenumber":1620,"addr:street":"Rue Sherbrooke Ouest","wheelchair":"no","place_id":"ChIJbbAq2moayUwRbzJcITXTJnE"},{"addr:housenumber":1212,"addr:street":"Boulevard Des Seigneurs","wheelchair":"yes","place_id":"ChIJn2t6T17eyEwRwAHxfwEt4Gw"},{"addr:housenumber":288,"addr:street":"Saint Catherine Ouest","wheelchair":"yes","place_id":"ChIJnbaHn08ayUwRPRTtvo-b8BY"},{"addr:housenumber":1592,"addr:street":"Avenue du Mont-Royal Est","wheelchair":"yes","place_id":"ChIJKQhxs9wbyUwRbD7aomNIU7I"},{"addr:housenumber":5570,"addr:street":"Avenue Casgrain","wheelchair":"no","place_id":"ChIJFQxYf3sZyUwRUNQiaCD09bY"},{"addr:housenumber":1640,"addr:street":"Boulevard De Maisonneuve Ouest","wheelchair":"no","place_id":"ChIJ3zdBr2sayUwR21cH8O-s9Mo"},{"addr:housenumber":1004,"addr:street":"Rue Sainte-Catherine Est","wheelchair":"yes","place_id":"ChIJh7ard7IbyUwRXUuZ0sC0aDg"},{"addr:housenumber":1006,"addr:street":"Rue Sherbrooke Ouest","wheelchair":"yes","place_id":"ChIJdbsxKkcayUwRD15IJru3DjQ"},{"addr:housenumber":1655,"addr:street":"rue Saint-Denis","wheelchair":"no","place_id":"ChIJ2dAGSbMbyUwRoVAkV7EIN3g"},{"addr:housenumber":1005,"addr:street":"Rue Guy","wheelchair":"yes","place_id":"ChIJk64H5mgayUwRa78M-__mOCE"},{"addr:housenumber":3609,"addr:street":"Rue Saint-Denis","wheelchair":"no","place_id":"ChIJ_Q-VeLUbyUwRBMhKjpB0gQo"},{"addr:housenumber":1836,"addr:street":"Avenue du Mont-Royal Est","wheelchair":"yes","place_id":"ChIJUUzqKcMbyUwRlIsgIerSBQo"},{"addr:housenumber":1018,"addr:street":"Rue Sainte-Catherine Est","wheelchair":"yes","place_id":"ChIJs5CidbIbyUwRSvPuLLrcRkE"},{"addr:housenumber":1404,"addr:street":"Rue Jean-Talon Est","wheelchair":"yes","place_id":"ChIJ7WjftTgZyUwR7g-0My2Gxsw"},{"addr:housenumber":1665,"addr:street":"Rue Sainte-Catherine Ouset","wheelchair":"no","place_id":"ChIJ-aOOv2sayUwR_yIIibMljzc"},{"addr:housenumber":"1429a","addr:street":"Rue Bishop","wheelchair":"no","place_id":"ChIJyyfzDGoayUwRTBG0eMk9I8c"},{"addr:housenumber":25,"addr:street":"Place Simon-Valois","wheelchair":"yes","place_id":"ChIJR1LXD4kbyUwR6XN6LxFBJMg"},{"addr:housenumber":1242,"addr:street":"Bishop","wheelchair":"no","place_id":"ChIJ_3-xjGkayUwRs00obhC-_xE"},{"addr:housenumber":1242,"addr:street":"Bishop","wheelchair":"no","place_id":"ChIJ_3-xjGkayUwRs00obhC-_xE"},{"addr:housenumber":3766,"addr:street":"Rue Ontario Est","wheelchair":"no","place_id":"ChIJB75CI4kbyUwRih-EgrxsCbg"},{"addr:housenumber":1,"addr:street":"Avenue du Mont-Royal Est","wheelchair":"yes","place_id":"ChIJlXLaDtMbyUwRuEke6hW3Buw"},{"addr:housenumber":2165,"addr:street":"Boulevard Des Laurentides","wheelchair":"yes","place_id":"ChIJHy5ZmiMhyUwR3gJiaS2jm20"},{"addr:housenumber":1822,"addr:street":"Boulevard De Maisonneuve Ouest","wheelchair":"no","place_id":"ChIJOXmKnWsayUwRl40u8TMHvVU"},{"addr:housenumber":1899,"addr:street":"Avenue du Mont-Royal Est","wheelchair":"yes","place_id":"ChIJRxx2zcIbyUwR2zhO80NiNsk"},{"addr:housenumber":1413,"addr:street":"Rue Saint-Marc","wheelchair":"yes","place_id":"ChIJr9-TeGwayUwRwCR2tngfvo4"},{"addr:housenumber":1413,"addr:street":"Rue Saint-Marc","wheelchair":"bad","place_id":"ChIJr9-TeGwayUwRwCR2tngfvo4"},{"addr:housenumber":1823,"addr:street":"Avenue du Mont-Royal Est","wheelchair":"yes","place_id":"EjYxODIzIEF2ZW51ZSBkdSBNb250LVJveWFsIEUsIE1vbnRyw6lhbCwgUUMgSDJILCBDYW5hZGEiGxIZChQKEgk_HuYqwxvJTBEiSRY7PVN1lBCfDg"},{"addr:housenumber":727,"addr:street":"Rue William","wheelchair":"yes","place_id":"ChIJCfukH18ayUwRkkts72A_UIQ"},{"addr:housenumber":1861,"addr:street":"Rue Sainte-Catherine Ouest","wheelchair":"bad","place_id":"ChIJhTvOd2wayUwReRRrCURKOqM"},{"addr:housenumber":915,"addr:street":"Avenue du Mont-Royal Est","wheelchair":"no","place_id":"ChIJ5RZAd9AbyUwR53DjJNR4o7k"},{"addr:housenumber":1176,"addr:street":"Bishop","wheelchair":"no","place_id":"ChIJT1lClmkayUwRDxduDPXBimQ"},{"addr:housenumber":1215,"addr:street":"Avenue du Mont-Royal Est","wheelchair":"yes","place_id":"ChIJxWDJ39obyUwRvhqkOVbOGuc"},{"addr:housenumber":4323,"addr:street":"Rue Ontario Est","wheelchair":"yes","place_id":"ChIJnaaH-3YcyUwRBdz4L3cKi9I"},{"addr:housenumber":1211,"addr:street":"Bishop","wheelchair":"no","place_id":"ChIJHZRll5PVJIgRDkfWEWgdNhQ"},{"addr:housenumber":468,"addr:street":"Rue McGill","wheelchair":"no","place_id":"ChIJR_dcQ1kayUwRe1XnxmrrQkE"},{"addr:housenumber":74,"addr:street":"Avenue du Mont-Royal est","wheelchair":"yes","place_id":"ChIJ8--yrtMbyUwRMeNL-3wO0Vo"},{"addr:housenumber":1665,"addr:street":"Avenue du Mont-Royal Est","wheelchair":"yes","place_id":"ChIJJxFiydwbyUwRDTImKPi2wAY"},{"addr:housenumber":1620,"addr:street":"Avenue Lincoln","wheelchair":"no","place_id":"ChIJIyrn_GoayUwR0uLWB327gl4"},{"addr:housenumber":820,"addr:street":"Rue Sainte-Catherine Est","wheelchair":"yes","place_id":"ChIJ_YmFmbIbyUwR6pbsk-P0lnE"},{"addr:housenumber":1317,"addr:street":"Avenue du Mont-Royal Est","wheelchair":"limited","place_id":"ChIJtW7YONsbyUwR5KZB-kngqbk"},{"addr:housenumber":1155,"addr:street":"Boulevard Rene-Levesque Ouest","wheelchair":"yes","place_id":"ChIJuyEr-kIayUwRJkap1sGTjxg"},{"addr:housenumber":2202,"addr:street":"Avenue du Mont-Royal Est","wheelchair":"yes","place_id":"ChIJITPZaugbyUwRTYGYF3wDez8"},{"addr:housenumber":1326,"addr:street":"Rue Sainte-Catherine Est","wheelchair":"no","place_id":"ChIJOcGKGK4byUwRbUmxDg_ah2Q"},{"addr:housenumber":1421,"addr:street":"Rue Bishop","wheelchair":"no","place_id":"ChIJmZABDGoayUwRka5JbmJyDPQ"},{"addr:housenumber":2340,"addr:street":"Guy","wheelchair":"no","place_id":"ChIJR4Mxw2oayUwR3hKh84elnCs"},{"addr:housenumber":1563,"addr:street":"Avenue du Mont-Royal Est","wheelchair":"limited","place_id":"ChIJHy3FsdwbyUwRKy6qoluK2rs"},{"addr:housenumber":2633,"addr:street":"Ontario E.","wheelchair":"yes","place_id":"ChIJT2bTENfJxokRsAEcKXFWe6U"},{"addr:housenumber":380,"addr:street":"Boul. Labelle, Suite 205","wheelchair":"yes","place_id":"EjQzODAgQm91bCBMYWJlbGxlICMyMDUsIFJvc2Vtw6hyZSwgUUMgSjdBIDNSOCwgQ2FuYWRhIh8aHQoWChQKEgmnm1gJtCfJTBGKPw08VZQTaxIDMjA1"},{"addr:housenumber":1198,"addr:street":"Bishop","wheelchair":"yes","place_id":"ChIJW7iXF6BIQIgRAlLIgYq5UjM"},{"addr:housenumber":1622,"addr:street":"Avenue Lincoln","wheelchair":"no","place_id":"ChIJ1wa6_GoayUwRqm_QjLJwmqg"},{"addr:housenumber":1385,"addr:street":"Rue Ontario Est","wheelchair":"no","place_id":"ChIJRzNWRLcbyUwR_znM_dZ5Gnk"},{"addr:housenumber":1354,"addr:street":"Rue Sainte-Catherine Est","wheelchair":"no","place_id":"ChIJL-PfJK4byUwRc6C36I7ns3k"},{"addr:housenumber":1217,"addr:street":"Avenue du Mont-Royal Est","wheelchair":"yes","place_id":"ChIJc8FY3tobyUwR1PGivHwEiHQ"},{"addr:housenumber":1051,"addr:street":"Avenue du Mont-Royal Est","wheelchair":"yes","place_id":"ChIJ_6JVkdobyUwRuRR71-R317w"},{"addr:housenumber":1425,"addr:street":"Rue Bishop","wheelchair":"no","place_id":"ChIJsySvDWoayUwRNHac9uhHQTM"},{"addr:housenumber":2963,"addr:street":"Rue Sherbrooke Est","wheelchair":"yes","place_id":"ChIJy7dF-uwbyUwRYCt92gpZkgk"},{"addr:housenumber":1200,"addr:street":"Boulevard Saint-Laurent","wheelchair":"no","place_id":"ChIJpd7jg4YPzkwRUXkSXgzsekk"},{"addr:housenumber":1662,"addr:street":"Boulevard de Maisonneuve O","wheelchair":"no","place_id":"ChIJez-EqGsayUwRkFaSRNEugHs"},{"addr:housenumber":2005,"addr:street":"Rue Bishop","wheelchair":"limited","place_id":"ChIJNasieWoayUwRkiQF9cOqiQo"},{"addr:housenumber":1652,"addr:street":"Rue Sherbrooke Ouest","wheelchair":"no","place_id":"ChIJG6oO2GoayUwRUfrubYsBrFE"},{"addr:housenumber":1245,"addr:street":"Bishop","wheelchair":"no","place_id":"ChIJz8m6eZPVJIgR5IE8TP_SHcg"},{"addr:housenumber":1485,"addr:street":"Avenue Victoria","wheelchair":"yes","place_id":"ChIJa6WP7jkFyUwRcQiYOhJLcGI"},{"addr:housenumber":1409,"addr:street":"Rue Saint-Marc","wheelchair":"bad","place_id":"ChIJZ973eGwayUwRiTduVFlXY70"},{"addr:housenumber":1301,"addr:street":"Avenue du Mont-Royal Est","wheelchair":"yes","place_id":"ChIJPyNROdsbyUwRTBiztOmdl-k"}]